Record ID,Store Name,Store Street Address,Additonal Address,City,State,Zip Code,Zip4,County,Store Type,Latitude,Longitude,Incentive Program,Grantee Name,x,y
226845,FOODS CO.  355,3625 Northgate Blvd,,Sacramento,CA,95834,1600,SACRAMENTO,Super Store,38.631283,-121.47561,,,-13522603.04900229,4668992.804443722
228485,Circle K 2728768,8876 Vintage Park Dr,Ste 119,Sacramento,CA,95828,5892,SACRAMENTO,Convenience Store,38.465374,-121.37322,,,-13511205.04633997,4645377.759827659
232914,Save Mart 623,9137 Kiefer Blvd,,Sacramento,CA,95826,5105,SACRAMENTO,Supermarket,38.547325,-121.36072,,,-13509813.552705051,4657035.636849209
237101,ORBIT STATION,4716 Auburn Blvd,,Sacramento,CA,95841,3631,SACRAMENTO,Convenience Store,38.654068,-121.35417,,,-13509084.410040356,4672240.2233527815
240398,Elder Creek Market,7025 Elder Creek Rd,,Sacramento,CA,95824,4361,SACRAMENTO,Convenience Store,38.51059,-121.42208,,,-13516644.116660126,4651808.286769911
248716,RED SEA FOOD MARKET,6968 65th St,Ste H,Sacramento,CA,95823,2334,SACRAMENTO,Grocery Store,38.500435,-121.43797,,,-13518412.983368834,4650363.712052028
251295,FOODS CO  371,8122 Gerber Rd,,Sacramento,CA,95828,4402,SACRAMENTO,Super Store,38.481617,-121.40793,,,-13515068.9458654,4647687.34169315
263978,QUIK STOP MARKET 9139,1295 Fulton Ave,,Sacramento,CA,95825,7313,SACRAMENTO,Convenience Store,38.588581,-121.40156,,,-13514359.840709051,4662909.504931323
269431,Eastern AM/PM Mini Market,4224 Marconi Ave,,Sacramento,CA,95821,4255,SACRAMENTO,Convenience Store,38.617302,-121.365,,,-13510290.000125648,4667000.68145921
274143,Walmart 2598,3661 Truxel Rd,,Sacramento,CA,95834,3617,SACRAMENTO,Super Store,38.63586,-121.50546,,,-13525925.93580247,4669645.055852108
277288,GOLDSTAR SUPERMARKET,5815 Stockton Blvd,,Sacramento,CA,95824,3051,SACRAMENTO,Other,38.520664,-121.44054,,,-13518699.074460171,4653241.5403492255
279606,CIRCLE CK,5219 Elkhorn Blvd,,Sacramento,CA,95842,2506,SACRAMENTO,Convenience Store,38.688309,-121.34244,,,-13507778.63241335,4677122.345176373
282265,SMART & FINAL 404,4820 Madison Ave,,Sacramento,CA,95841,2519,SACRAMENTO,Super Store,38.660843,-121.35143,,,-13508779.39463558,4673206.02550526
284008,BEL AIR  510,1540 W El Camino Ave,,Sacramento,CA,95833,1946,SACRAMENTO,Supermarket,38.61274,-121.49655,,,-13524934.0791395,4666350.735798447
286964,Mad Butcher Meat Co.,6480 Florin Perkins Rd,,Sacramento,CA,95828,1814,SACRAMENTO,Specialty Store,38.509174,-121.39124,,,-13513211.023564061,4651606.844926772
288393,TEREMOK,5519 Hemlock St,,Sacramento,CA,95841,2709,SACRAMENTO,Grocery Store,38.666149,-121.34131,,,-13507652.841388755,4673962.479890176
297652,BEL AIR  506,1301 Florin Rd,,Sacramento,CA,95831,3618,SACRAMENTO,Supermarket,38.495678,-121.51001,,,-13526432.439485578,4649687.0866858065
303370,ERNIE'S LIQUOR & DELI,5735 Hillsdale Blvd,,Sacramento,CA,95842,3003,SACRAMENTO,Convenience Store,38.672165,-121.35722,,,-13509423.934487276,4674820.223838094
307762,LA Superior Northgate Inc. 1,2210 Northgate Blvd,,Sacramento,CA,95833,2505,SACRAMENTO,Supermarket,38.607342,-121.47555,,,-13522596.369832845,4665581.739054646
312573,BEL AIR  501,6231 Fruitridge Rd,,Sacramento,CA,95820,5844,SACRAMENTO,Supermarket,38.525101,-121.43187,,,-13517733.934474992,4653872.867245644
313986,Walgreens 6613,1401 Broadway,,Sacramento,CA,95818,2219,SACRAMENTO,Other,38.562138,-121.49424,,,-13524676.931115769,4659144.265887048
319913,B&W LIQUORS OR BOTTLE SHOP,1810 Del Paso Blvd,,Sacramento,CA,95815,3041,SACRAMENTO,Convenience Store,38.608105,-121.45486,,,-13520293.169568332,4665690.432193549
325261,Walgreens 5374,2900 Stockton Blvd,,Sacramento,CA,95817,2302,SACRAMENTO,Other,38.54792,-121.45432,,,-13520233.057043301,4657120.3266638005
328526,7-ELEVEN 26598 C,5579 Mack Rd,,Sacramento,CA,95823,4669,SACRAMENTO,Convenience Store,38.474377,-121.43624,,,-13518220.40064976,4646657.826411577
336296,7-ELEVEN (GILL) 23226 B,3405 Bradshaw Rd,,Sacramento,CA,95827,3327,SACRAMENTO,Convenience Store,38.561871,-121.33602,,,-13507063.961282458,4659106.254618675
337843,Circle K 2721057,5555 Hemlock St,,Sacramento,CA,95841,2709,SACRAMENTO,Convenience Store,38.66713,-121.34129,,,-13507650.614998939,4674102.343125941
338023,SAFEWAY 2684,1814 19th St,,Sacramento,CA,95811,6713,SACRAMENTO,Supermarket,38.568165,-121.48512,,,-13523661.697359733,4660002.333103548
340747,MI RANCHO,2355 Florin Rd,,Sacramento,CA,95822,4402,SACRAMENTO,Super Store,38.495869,-121.48352,,,-13523483.586174466,4649714.253250718
341811,Chhun Supermarket,6701 Franklin Blvd,,Sacramento,CA,95823,1028,SACRAMENTO,Grocery Store,38.504715,-121.46392,,,-13521301.724154918,4650972.528162775
344172,STOP & SHOP,2533 Edison Ave,,Sacramento,CA,95821,2327,SACRAMENTO,Convenience Store,38.626678,-121.40243,,,-13514456.688666038,4668336.604880903
354817,Walmart 2735,6051 Florin Rd,,Sacramento,CA,95823,    ,SACRAMENTO,Super Store,38.498775,-121.43377,,,-13517945.4415075,4650127.592175465
360159,RC FOOD MART,2847 Bradshaw Rd,,Sacramento,CA,95827,1339,SACRAMENTO,Convenience Store,38.574066,-121.33619,,,-13507082.885595893,4660842.531366422
361683,AMERICAN WAY MARKET,401 W El Camino Ave,,Sacramento,CA,95833,2202,SACRAMENTO,Grocery Store,38.611248,-121.47199,,,-13522200.07244562,4666138.1803383455
362205,PARK N SAVE MARKET & LIQUOR,3041 Rio Linda Blvd,,Sacramento,CA,95815,1233,SACRAMENTO,Convenience Store,38.62289,-121.4462,,,-13519329.142778061,4667796.8571127
363195,FRANK'S QUALITY MEATS INC,6580 Belleau Wood Ln,,Sacramento,CA,95822,5910,SACRAMENTO,Other,38.507561,-121.50462,,,-13525832.427430203,4651377.382455717
365107,Red Star International Groceries,7245 East Pkwy,,Sacramento,CA,95823,3131,SACRAMENTO,Grocery Store,38.494751,-121.44984,,,-13519734.34572455,4649555.237417386
365681,SAFEWAY  1530,3320 Arden Way,,Sacramento,CA,95825,2017,SACRAMENTO,Supermarket,38.595795,-121.38631,,,-13512662.218474451,4663936.952638544
372579,SMART & FINAL 806,5128 Stockton Blvd,,Sacramento,CA,95820,5410,SACRAMENTO,Super Store,38.528442,-121.44573,,,-13519276.822617386,4654348.273408778
380627,Peace Market,1801 O St,,Sacramento,CA,95811,6106,SACRAMENTO,Convenience Store,38.572033,-121.4847,,,-13523614.943173602,4660553.060251588
394081,Kings Supermarket,400 El Camino Ave,,Sacramento,CA,95815,2937,SACRAMENTO,Grocery Store,38.611088,-121.45729,,,-13520563.675930958,4666115.386449563
399113,OAK PARK MARKET,3300 12th Ave,,Sacramento,CA,95817,3545,SACRAMENTO,Convenience Store,38.541176,-121.4708,,,-13522067.602251576,4656160.454912244
401909,LA ESPERANZA BAKERY,5044 Franklin Blvd,,Sacramento,CA,95820,4732,SACRAMENTO,Other,38.529186,-121.47294,,,-13522305.825961873,4654454.143574886
405786,SKY PARKWAY MARKET,5530 Sky Pkwy,,Sacramento,CA,95823,2268,SACRAMENTO,Convenience Store,38.502354,-121.43677,,,-13518279.39997988,4650636.679100491
411437,DISCOUNT LIQUOR & FOODS,7725 Stockton Blvd,Ste F,Sacramento,CA,95823,4300,SACRAMENTO,Convenience Store,38.476276,-121.41985,,,-13516395.874195658,4646927.85087241
412823,99 CENTS ONLY STORES  183,2351 Northgate Blvd,,Sacramento,CA,95833,2504,SACRAMENTO,Other,38.609249,-121.47562,,,-13522604.1621972,4665853.402840096
415234,FOOD MAXX  464,3860 Florin Rd,,Sacramento,CA,95823,1816,SACRAMENTO,Supermarket,38.495975,-121.46063,,,-13520935.483030207,4649729.330014158
420625,WING WA SUPERMARKET,6021 Stockton Blvd,,Sacramento,CA,95824,1534,SACRAMENTO,Supermarket,38.516884,-121.43882,,,-13518507.604936007,4652703.726634213
421705,SERVO GAS & FOOD,2400 Fruitridge Rd,,Sacramento,CA,95822,2244,SACRAMENTO,Convenience Store,38.524742,-121.48273,,,-13523395.643776739,4653821.784807729
426399,7-ELEVEN 29253 C,5581 Hillsdale Blvd,,Sacramento,CA,95842,4262,SACRAMENTO,Convenience Store,38.669834,-121.36104,,,-13509849.174942106,4674487.868020728
427894,SUNLAND LIQUORS,2000 Del Paso Blvd,,Sacramento,CA,95815,3022,SACRAMENTO,Convenience Store,38.609016,-121.45298,,,-13520083.88892564,4665820.21018126
431143,Nugget Market 5,1040 Florin Rd,,Sacramento,CA,95831,3513,SACRAMENTO,Supermarket,38.495472,-121.52153,,,-13527714.840019517,4649657.786701765
454425,99 CENTS ONLY STORES  175,2224 El Camino Ave,,Sacramento,CA,95821,4602,SACRAMENTO,Other,38.610794,-121.41344,,,-13515682.316259673,4666073.502811444
458008,A & A SUPERMARKET,6545 Stockton Blvd,,Sacramento,CA,95823,1606,SACRAMENTO,Super Store,38.507256,-121.43433,,,-13518007.780422345,4651333.994283595
460776,Family Market,4310 73rd St,,Sacramento,CA,95820,3527,SACRAMENTO,Convenience Store,38.53577,-121.41906,,,-13516307.931797931,4655391.085337409
461170,SMILE FOOD MARKET,2948 Bradshaw Rd,,Sacramento,CA,95827,1602,SACRAMENTO,Other,38.571178,-121.33659,,,-13507127.41339221,4660431.322509955
462234,Jk Food And Liquor And Wine,8321 Folsom Blvd,,Sacramento,CA,95826,3513,SACRAMENTO,Convenience Store,38.547108,-121.39937,,,-13514116.051024212,4657004.750150039
466260,RALEY'S  420,8391 Folsom Blvd,,Sacramento,CA,95826,3538,SACRAMENTO,Supermarket,38.547287,-121.39333,,,-13513443.681299822,4657030.228111745
470978,QUIK STOP MARKET 4111,3920 Fruitridge Rd,,Sacramento,CA,95820,6415,SACRAMENTO,Convenience Store,38.524914,-121.46191,,,-13521077.971978422,4653846.258813039
471829,RALEY'S  416,3518 Marconi Ave,,Sacramento,CA,95821,5302,SACRAMENTO,Supermarket,38.617744,-121.38083,,,-13512052.187664906,4667063.655155458
476296,Save Mart 625,2501 Fair Oaks Blvd,,Sacramento,CA,95825,7685,SACRAMENTO,Supermarket,38.574368,-121.40309,,,-13514530.159529964,4660885.532693212
479227,VINH PHAT MARKET,6105 Stockton Blvd,,Sacramento,CA,95824,4010,SACRAMENTO,Super Store,38.515686,-121.43823,,,-13518441.92643644,4652533.282572544
481109,Pothong Market,3540 Norwood Ave,,Sacramento,CA,95838,4208,SACRAMENTO,Grocery Store,38.63147,-121.45689,,,-13520519.14813464,4669019.452308881
486994,Stop and Shop,4321 Madison Ave,Ste E,Sacramento,CA,95842,3502,SACRAMENTO,Convenience Store,38.66116,-121.36326,,,-13510096.304211667,4673251.217304579
487498,SAFEWAY  2242,1025 Alhambra Blvd,,Sacramento,CA,95816,5212,SACRAMENTO,Supermarket,38.571869,-121.4656,,,-13521488.740899451,4660529.709274233
493416,BEL AIR  502,4320 Arden Way,,Sacramento,CA,95864,3103,SACRAMENTO,Supermarket,38.595543,-121.36341,,,-13510113.002135286,4663901.060016299
518232,Seafood City Supermarket,6051 Mack Rd,,Sacramento,CA,95823,4699,SACRAMENTO,Supermarket,38.474327,-121.4315,,,-13517692.7462634,4646650.716858893
520990,CARNICERIA LOPEZ,5550 Franklin Blvd,Ste 100,Sacramento,CA,95820,4700,SACRAMENTO,Grocery Store,38.525669,-121.47202,,,-13522203.412030343,4653953.689005002
523204,Save Mart 622,5600 Folsom Blvd,,Sacramento,CA,95819,4606,SACRAMENTO,Supermarket,38.558395,-121.43803,,,-13518419.662538279,4658611.409193549
531866,Petrostar oil Co,2399 Florin Rd,,Sacramento,CA,95822,4402,SACRAMENTO,Convenience Store,38.496098,-121.48317,,,-13523444.624352686,4649746.824776895
539082,CHOICE FOOD MARKET,2103 P St,,Sacramento,CA,95816,6110,SACRAMENTO,Convenience Store,38.569756,-121.48135,,,-13523242.022879446,4660228.856632161
542576,SAFEWAY 190,424 Howe Ave,,Sacramento,CA,95825,5507,SACRAMENTO,Supermarket,38.572502,-121.41386,,,-13515729.070445806,4660619.838645642
547241,7-ELEVEN (SINGH) 24147 C,5080 Auburn Blvd,,Sacramento,CA,95841,2649,SACRAMENTO,Convenience Store,38.661366,-121.34619,,,-13508196.080503825,4673280.584953326
554916,99 CENTS ONLY STORES 168,4319 Elkhorn Blvd,,Sacramento,CA,95842,3772,SACRAMENTO,Other,38.694569,-121.36275,,,-13510039.531271365,4678015.155869002
562274,B & L CASH MARKET,3025 Academy Way,,Sacramento,CA,95815,1540,SACRAMENTO,Convenience Store,38.622101,-121.42544,,,-13517018.15014919,4667684.436996804
567933,SAFEWAY  2263,5345 Elkhorn Blvd,,Sacramento,CA,95842,2526,SACRAMENTO,Supermarket,38.685566,-121.34033,,,-13507543.748287776,4676731.15897104
570931,MAK'S QUICK CORNER,1101 Broadway,,Sacramento,CA,95818,2215,SACRAMENTO,Convenience Store,38.563198,-121.49818,,,-13525115.529909495,4659295.173439295
585678,India Market,5203 Elkhorn Blvd,,Sacramento,CA,95842,2506,SACRAMENTO,Grocery Store,38.687794,-121.34362,,,-13507909.989412487,4677048.898573225
586412,Walgreens 4170,4200 Arden Way,,Sacramento,CA,95864,3021,SACRAMENTO,Other,38.595562,-121.36556,,,-13510352.339040492,4663903.766201679
587412,Special Food Market,4614 Martin Luther King Jr Blvd,,Sacramento,CA,95820,2733,SACRAMENTO,Convenience Store,38.532963,-121.465,,,-13521421.949204974,4654991.622311674
594836,Save Mart 619,7960 Gerber Rd,,Sacramento,CA,95828,4352,SACRAMENTO,Supermarket,38.481632,-121.40986,,,-13515283.792482631,4647689.474774138
602228,Walgreens 4136,1919 Fruitridge Rd,,Sacramento,CA,95822,3114,SACRAMENTO,Other,38.524769,-121.49551,,,-13524818.306869078,4653825.626653529
606049,Trader Joe's 175,5000 Folsom Blvd,,Sacramento,CA,95819,4441,SACRAMENTO,Supermarket,38.560944,-121.44461,,,-13519152.144787697,4658974.284007843
626728,Whole Foods Market 10152,4315 Arden Way,,Sacramento,CA,95864,3102,SACRAMENTO,Super Store,38.595612,-121.36298,,,-13510065.134754242,4663910.887745579
629812,Quick Trip Market 2,6945 Stockton Blvd,Ste A,Sacramento,CA,95823,2335,SACRAMENTO,Convenience Store,38.498795,-121.43034,,,-13517563.61565408,4650130.43696087
637635,Bimbo Bakeries 1473,7601 Wilbur Way,,Sacramento,CA,95828,4927,SACRAMENTO,Specialty Store,38.48151,-121.39748,,,-13513905.657186614,4647672.125728306
644959,FOODS CO  501,5330 Stockton Blvd,,Sacramento,CA,95820,5412,SACRAMENTO,Super Store,38.526318,-121.44324,,,-13518999.637085315,4654046.037183433
655392,SACRAMENTO SHELL,5551 Martin Luther King Jr Blvd,,Sacramento,CA,95820,6402,SACRAMENTO,Convenience Store,38.525314,-121.46424,,,-13521337.34639197,4653903.175330649
655770,Chimas Food & Liquor,1530 Auburn Blvd,,Sacramento,CA,95815,1905,SACRAMENTO,Convenience Store,38.61385,-121.43167,,,-13517711.670576833,4666508.873090267
658350,Trader Joe's 70,2625 Marconi Ave,,Sacramento,CA,95821,5105,SACRAMENTO,Supermarket,38.618065,-121.40091,,,-13514287.483040033,4667109.389689419
666803,Speed Bird 2,5000 Fruitridge Rd,,Sacramento,CA,95820,5301,SACRAMENTO,Convenience Store,38.524933,-121.44728,,,-13519449.367828118,4653848.962340468
669460,Walgreens 5036,4495 Mack Rd,,Sacramento,CA,95823,4545,SACRAMENTO,Other,38.474426,-121.45065,,,-13519824.51451209,4646664.793777992
669849,BEL AIR  514,7465 Rush River Dr,,Sacramento,CA,95831,5255,SACRAMENTO,Supermarket,38.485664,-121.53588,,,-13529312.274712402,4648262.863041772
674626,SF Supermarket,6930 65th St,Ste 123,Sacramento,CA,95823,2342,SACRAMENTO,Super Store,38.500278,-121.43503,,,-13518085.704065898,4650341.379999388
675892,RALEY'S  447,4650 Natomas Blvd,,Sacramento,CA,95835,1217,SACRAMENTO,Supermarket,38.657349,-121.51189,,,-13526641.72012827,4672707.931038884
677448,PS MARKET,2800 T St,,Sacramento,CA,95816,7326,SACRAMENTO,Convenience Store,38.562698,-121.47375,,,-13522395.994749414,4659223.990354305
679456,Discount Liqour,5225 Elkhorn Blvd,,Sacramento,CA,95842,2506,SACRAMENTO,Convenience Store,38.688309,-121.34244,,,-13507778.63241335,4677122.345176373
685842,SMART & FINAL 405,2431 28th St,,Sacramento,CA,95818,2700,SACRAMENTO,Super Store,38.557476,-121.47554,,,-13522595.256637935,4658480.583807314
686218,7-Eleven Inc - 7 Eleven  33315A,5501 Auburn Blvd,,Sacramento,CA,95841,2901,SACRAMENTO,Convenience Store,38.668575,-121.33596,,,-13507057.282113012,4674308.363308991
686946,CITY LIQUOR & FOOD,7595 Franklin Blvd,,Sacramento,CA,95823,3607,SACRAMENTO,Convenience Store,38.481922,-121.45284,,,-13520068.304196926,4647730.7144271815
697159,SAFEWAY 2697,2851 Del Paso Rd,,Sacramento,CA,95835,2304,SACRAMENTO,Supermarket,38.656029,-121.52388,,,-13527976.44082288,4672519.762006108
699856,Bing's Market,4775 Rio Linda Blvd,,Sacramento,CA,95838,2224,SACRAMENTO,Grocery Store,38.653912,-121.44778,,,-13519505.027573515,4672217.986032262
700396,WELCO SUPERMARKET,7100 Fruitridge Rd,,Sacramento,CA,95820,5942,SACRAMENTO,Super Store,38.525074,-121.42112,,,-13516537.249948965,4653869.02538212
706011,CHIMA LIQUOR STORE,5049 Franklin Blvd,,Sacramento,CA,95820,4731,SACRAMENTO,Convenience Store,38.529022,-121.47276,,,-13522285.78845353,4654430.806508733
713879,Mission Liquor & Food,4654 Whitney Ave,,Sacramento,CA,95821,4172,SACRAMENTO,Convenience Store,38.628304,-121.35602,,,-13509290.351098323,4668568.300499469
714483,SAFEWAY  1289,8377 Elk Grove Florin Rd,,Sacramento,CA,95829,9453,SACRAMENTO,Supermarket,38.453491,-121.37157,,,-13511021.36918016,4643688.453052201
715166,T&Y MARKET,2835 Norwood Ave,,Sacramento,CA,95815,1150,SACRAMENTO,Other,38.619469,-121.457,,,-13520531.393278627,4667309.427252743
716857,LA Superior Mercados Inc. 2,4940 Stockton Blvd,,Sacramento,CA,95820,5406,SACRAMENTO,Supermarket,38.530968,-121.4454,,,-13519240.087185428,4654707.724149552
718910,BUDGET FOOD MART,7223 Florin Mall Dr,Unit A,Sacramento,CA,95823,2701,SACRAMENTO,Grocery Store,38.494423,-121.4343,,,-13518004.440837618,4649508.585655394
720156,99 CENTS ONLY STORE 209,8387 Folsom Blvd,,Sacramento,CA,95826,3538,SACRAMENTO,Other,38.547276,-121.39364,,,-13513478.190341966,4657028.6624251185
732200,SF Supermarket,4562 MACK RD,,SACRAMENTO,CA,95823,    ,SACRAMENTO,Super Store,38.474186,-121.44859,,,-13519595.196361056,4646630.667946879
734736,Paramount Market,721 J St,,Sacramento,CA,95814,2501,SACRAMENTO,Convenience Store,38.5812,-121.49669,,,-13524949.663868215,4661858.3792277835
735807,E Z STOP,5367 Elkhorn Blvd,,Sacramento,CA,95842,2526,SACRAMENTO,Convenience Store,38.686054,-121.341,,,-13507618.332346607,4676800.752795329
738101,Freeport Market No,8101 Freeport Blvd,,Sacramento,CA,95832,9703,SACRAMENTO,Convenience Store,38.46199,-121.5013,,,-13525462.84672077,4644896.656494475
738275,RITE AID 6074,5610 Stockton Blvd,,Sacramento,CA,95824,1612,SACRAMENTO,Other,38.524067,-121.44222,,,-13518886.091204703,4653725.739131149
738330,RITE AID 6081,9133 Kiefer Blvd,,Sacramento,CA,95826,5105,SACRAMENTO,Other,38.547298,-121.36067,,,-13509807.986730512,4657031.793798611
738332,RITE AID 6083,7860 Gerber Rd,,Sacramento,CA,95828,4302,SACRAMENTO,Other,38.481644,-121.41181,,,-13515500.86548968,4647691.181239251
738333,RITE AID 6084,980 Florin Rd,,Sacramento,CA,95831,3515,SACRAMENTO,Other,38.495594,-121.52235,,,-13527806.122001968,4649675.1391093815
738336,RITE AID 6228,4221 Norwood Ave,,Sacramento,CA,95838,2686,SACRAMENTO,Other,38.645638,-121.45698,,,-13520529.16688881,4671038.622151724
738347,RITE AID 6448,2751 Del Paso Blvd,,Sacramento,CA,95835,2302,SACRAMENTO,Other,38.656021,-121.52336,,,-13527918.55468767,4672518.6215983
739176,EAST MEETS WEST SUPERMARKET,4901 Auburn Blvd,,Sacramento,CA,95841,2618,SACRAMENTO,Convenience Store,38.657581,-121.35063,,,-13508690.339042949,4672741.003530218
739467,7-Eleven 23040D,2544 Arden Way,,Sacramento,CA,95825,2429,SACRAMENTO,Convenience Store,38.596004,-121.40216,,,-13514426.632403525,4663966.7208216265
746073,CITY FOOD & DELI,7076 Bowling Dr,,Sacramento,CA,95823,2038,SACRAMENTO,Convenience Store,38.49823,-121.45596,,,-13520415.621008204,4650050.072077186
747996,COURT LIQUORS,6225 Franklin Blvd,,Sacramento,CA,95824,3446,SACRAMENTO,Convenience Store,38.512802,-121.46796,,,-13521751.454897722,4652122.9764472665
751831,INTERNATIONAL FOOD MART,1345 Fulton Ave,,Sacramento,CA,95825,3603,SACRAMENTO,Grocery Store,38.589779,-121.40158,,,-13514362.067098863,4663080.121896074
752262,EAGLE GAS & LIQUOR,4646 El Camino Ave,,Sacramento,CA,95821,6736,SACRAMENTO,Convenience Store,38.610111,-121.35569,,,-13509253.61566636,4665976.202369061
753588,TAPATIO BROTHERS,2414 Howe Ave,,Sacramento,CA,95825,0132,SACRAMENTO,Grocery Store,38.609745,-121.41528,,,-13515887.144122731,4665924.062249624
758376,DOLLAR TREE 1204,6650 Valley HI Dr,,Sacramento,CA,95823,4602,SACRAMENTO,Other,38.472469,-121.42707,,,-13517199.600919185,4646386.529376839
759998,7-ELEVEN 16350 D,7700 La Riviera Dr,,Sacramento,CA,95826,5706,SACRAMENTO,Convenience Store,38.556839,-121.41048,,,-13515352.810566926,4658389.903862729
770443,SAMTHONG MEAT MARKET,6235 Franklin Blvd,,Sacramento,CA,95824,3446,SACRAMENTO,Specialty Store,38.512951,-121.46797,,,-13521752.56809263,4652144.174245964
775801,7-ELEVEN 14119F,6591 Wyndham Dr,,Sacramento,CA,95823,4925,SACRAMENTO,Convenience Store,38.468517,-121.42618,,,-13517100.52657238,4645824.620407388
776791,Walgreens 06706,7155 24th St,,Sacramento,CA,95822,4494,SACRAMENTO,Other,38.496262,-121.48273,,,-13523395.643776739,4649770.151173675
780555,Target Store T-2115,3601 N Freeway Blvd,,Sacramento,CA,95834,2902,SACRAMENTO,Super Store,38.639748,-121.49881,,,-13525185.661188696,4670199.153124853
782405,99 Cents Only Store 237,5924 Stockton Blvd,,Sacramento,CA,95824,3039,SACRAMENTO,Other,38.518826,-121.43979,,,-13518615.584842077,4652980.028459665
783375,MEDITERRANEAN MARKET,1547 Fulton Ave,Ste B,Sacramento,CA,95825,5104,SACRAMENTO,Grocery Store,38.59396,-121.40154,,,-13514357.614319231,4663675.594560649
783405,LIQUOR VIDEO CENTER,7137 Walerga Rd,Ste 3,Sacramento,CA,95842,4620,SACRAMENTO,Convenience Store,38.696728,-121.36375,,,-13510150.850762155,4678323.093843184
784132,Target Store T-1527,8101 Cosumnes River Blvd,,Sacramento,CA,95823,5415,SACRAMENTO,Super Store,38.457287,-121.415,,,-13515855.97466531,4644228.06839162
784292,BEL AIR 528,3250 Arena Blvd,,Sacramento,CA,95834,1098,SACRAMENTO,Supermarket,38.642963,-121.53372,,,-13529071.824612288,4670657.360688543
784844,Walmart 5192,5821 Antelope Rd,,Sacramento,CA,95842,    ,SACRAMENTO,Super Store,38.704273,-121.33179,,,-13506593.0798364,4679399.309517962
786022,GASTRONOM KIEV,4900 Madison Ave,Ste C1,Sacramento,CA,95841,2696,SACRAMENTO,Grocery Store,38.660831,-121.35029,,,-13508652.490416078,4673204.314778615
789024,7 ELEVEN 23265D,2450 Northgate Blvd,,Sacramento,CA,95833,2501,SACRAMENTO,Convenience Store,38.610981,-121.47553,,,-13522594.143443028,4666100.143064803
789863,LA Superior Hillsdale 4,5731 Hillsdale Blvd,,Sacramento,CA,95842,3003,SACRAMENTO,Supermarket,38.671547,-121.35826,,,-13509539.7067577,4674732.10785677
791398,Food Maxx 488,3291 Truxel Rd,,Sacramento,CA,95833,1013,SACRAMENTO,Supermarket,38.627174,-121.49796,,,-13525091.03962152,4668407.281462245
802804,7 ELEVEN 14107F,1199 43rd Ave,,Sacramento,CA,95822,3319,SACRAMENTO,Convenience Store,38.515991,-121.51447,,,-13526928.92441452,4652576.675824947
806045,SMART & FINAL 591,1734 Watt Ave,,Sacramento,CA,95825,2140,SACRAMENTO,Super Store,38.59713,-121.38285,,,-13512277.053036308,4664127.100179724
808352,Stop N Shop,3440 Folsom Blvd,,Sacramento,CA,95816,5312,SACRAMENTO,Convenience Store,38.566356999999996,-121.46317,,,-13521218.234536825,4659744.919619464
811479,DOLLAR TREE 1229,7020 Stockton Blvd,,Sacramento,CA,95823,2312,SACRAMENTO,Other,38.49976,-121.4309,,,-13517625.954568923,4650267.698795152
811888,New Asia Supermarket,6418 Stockton Blvd,,Sacramento,CA,95823,1605,SACRAMENTO,Supermarket,38.509617,-121.4355,,,-13518138.024226572,4651669.866207546
819728,Quick Shop Market Inc,2830 Franklin Blvd,,Sacramento,CA,95818,2752,SACRAMENTO,Convenience Store,38.552338,-121.47611,,,-13522658.708747689,4657749.188250367
821682,Marconi Express Mart,2549 Marconi Ave,,Sacramento,CA,95821,4803,SACRAMENTO,Convenience Store,38.618351,-121.4019,,,-13514397.68933592,4667150.137764372
822343,Pacific Market,2500 P St,,Sacramento,CA,95816,6311,SACRAMENTO,Convenience Store,38.568203,-121.47591,,,-13522636.44484953,4660007.743412199
824976,Foods Co 0532,7421 W Stockton Blvd,,Sacramento,CA,95823,5428,SACRAMENTO,Super Store,38.455322,-121.4158,,,-13515945.030257946,4643948.732881281
825141,Subway #3433,1036 Florin Rd,,Sacramento,CA,95831,3513,SACRAMENTO,Restaurant Meals Program,38.494221,-121.52096,,,-13527651.387909766,4649479.855102775
825672,Rainbow Market,3810 Marysville Blvd,,Sacramento,CA,95838,3710,SACRAMENTO,Convenience Store,38.636681,-121.42965,,,-13517486.80520543,4669762.057942717
829299,Target Store T-0312,1919 Fulton Ave,,Sacramento,CA,95825,1905,SACRAMENTO,Super Store,38.600277,-121.40157,,,-13514360.953903956,4664575.349614027
829935,Dollar Tree 1203,5051 Fruitridge Rd,,Sacramento,CA,95820,5433,SACRAMENTO,Other,38.52499,-121.44534,,,-13519233.408015978,4653857.072927041
831520,Walgreens 10114,3521 Del Paso Rd,,Sacramento,CA,95835,2800,SACRAMENTO,Other,38.655865,-121.54059,,,-13529836.589514036,4672496.383671486
832501,Choice Gas,7900 Fruitridge Rd,,Sacramento,CA,95820,6744,SACRAMENTO,Convenience Store,38.525043,-121.41163,,,-13515480.827981338,4653864.614355407
832667,SP Liquors,4556 Auburn Blvd,Suite B,Sacramento,CA,95841,4203,SACRAMENTO,Convenience Store,38.649952,-121.35788,,,-13509497.405351197,4671653.516419792
834291,Circle Seven,2215 Marconi Ave,,Sacramento,CA,95821,4610,SACRAMENTO,Convenience Store,38.618202,-121.41386,,,-13515729.070445806,4667128.908851902
834504,Papa Murphys 135,8364 Elk Grove Florin Rd,,Sacramento,CA,95829,9228,SACRAMENTO,Specialty Store,38.45343,-121.37183,,,-13511050.312247766,4643679.781909984
836714,7-Eleven Store 32836A,5500 Florin Perkins Rd,,Sacramento,CA,95826,4824,SACRAMENTO,Convenience Store,38.525642,-121.39079,,,-13513160.929793205,4653949.847111156
837811,Stop 1 Liquor,4415 Elkhorn Blvd,,Sacramento,CA,95842,3779,SACRAMENTO,Convenience Store,38.694595,-121.36052,,,-13509791.288806893,4678018.8641913505
841267,Rite Aid 6520,4830 J St,,Sacramento,CA,95819,3742,SACRAMENTO,Other,38.566895,-121.4433,,,-13519006.31625476,4659821.516539061
847486,A1 Mart,2550 W El Camino Ave,Ste 2,Sacramento,CA,95833,3900,SACRAMENTO,Convenience Store,38.614155,-121.51822,,,-13527346.372504992,4666552.325657547
848270,City Food and Liquor,7121 Franklin Blvd,,Sacramento,CA,95823,1814,SACRAMENTO,Convenience Store,38.49752,-121.45992,,,-13520856.446191743,4649949.083471069
848299,Toledos Mexican Market,1341 Fulton Ave,,Sacramento,CA,95825,3603,SACRAMENTO,Grocery Store,38.589691,-121.40158,,,-13514362.067098863,4663067.589000452
849471,Desi Bazzar,7454 Stockton Blvd,Ste A,Sacramento,CA,95823,3200,SACRAMENTO,Grocery Store,38.487095,-121.42491,,,-13516959.150819072,4648466.372394377
850061,King Wine & Liquor,1328 Fulton Ave,,Sacramento,CA,95825,3604,SACRAMENTO,Convenience Store,38.58963,-121.40146,,,-13514348.70875997,4663058.90143409
852438,Russian Chocolate,10170 Croydon Way,Ste D,Sacramento,CA,95827,2104,SACRAMENTO,Convenience Store,38.58115,-121.3147,,,-13504690.629738744,4661851.25911315
855240,Rivermart,222 Jibboom St,,Sacramento,CA,95811,0108,SACRAMENTO,Convenience Store,38.596169,-121.50573,,,-13525955.992064985,4663990.222080017
856605,Quik Stop Market 9162,8500 Florin Rd,,Sacramento,CA,95828,    ,SACRAMENTO,Convenience Store,38.496082,-121.39008,,,-13513081.89295474,4649744.54903371
856677,Viva Supermarket,4211 Norwood Ave,,Sacramento,CA,95838,2686,SACRAMENTO,Super Store,38.644997,-121.45698,,,-13520529.16688881,4670947.260631599
857068,Dollar Tree 1976,3308 Arden Way,,Sacramento,CA,95825,2017,SACRAMENTO,Other,38.59581,-121.38687,,,-13512724.557389295,4663939.089108126
857825,Dollar Tree 2545,1347 Florin Rd,,Sacramento,CA,95831,3618,SACRAMENTO,Other,38.495777,-121.50745,,,-13526147.46158915,4649701.167775906
860135,B & E Market,7596 Bradshaw Rd,,Sacramento,CA,95829,1033,SACRAMENTO,Convenience Store,38.481865,-121.33491,,,-13506940.396647675,4647722.608689172
861589,Dollar Tree 3566,6710 Folsom Blvd,,Sacramento,CA,95819,4626,SACRAMENTO,Other,38.553585,-121.42558,,,-13517033.734877905,4657926.694201651
862797,Dollar Tree 2041,3615 Northgate Blvd,,Sacramento,CA,95834,1600,SACRAMENTO,Other,38.631001,-121.47558,,,-13522599.709417567,4668952.619024493
865045,Northgate Shell,3430 Northgate Blvd,,Sacramento,CA,95834,1649,SACRAMENTO,Convenience Store,38.629982,-121.47551,,,-13522591.917053211,4668807.411327134
866269,Walgreens 10716,250 Florin Rd,,Sacramento,CA,95831,1405,SACRAMENTO,Other,38.509129,-121.54245,,,-13530043.643766915,4651600.443238228
869353,People Supermarket Inc 1,7478 Stockton Blvd,Ste 103,Sacramento,CA,95823,3956,SACRAMENTO,Super Store,38.485878,-121.42433,,,-13516894.585514411,4648293.296748082
874580,Power Inn Shell,8090 Folsom Blvd,,Sacramento,CA,95826,2613,SACRAMENTO,Convenience Store,38.549442,-121.40943,,,-13515235.925101591,4657336.964975186
876726,Millers AM-PM,1391 Florin Rd,,Sacramento,CA,95822,4201,SACRAMENTO,Convenience Store,38.495789,-121.50365,,,-13525724.447524134,4649702.874576022
879039,Ho Chin Market,5069 Freeport Blvd,,Sacramento,CA,95822,2736,SACRAMENTO,Grocery Store,38.528049,-121.49599,,,-13524871.740224658,4654292.35049673
879107,Sam's Club 6622,8250 Power Inn Rd,,Sacramento,CA,95828,    ,SACRAMENTO,Super Store,38.458023,-121.40536,,,-13514782.854774063,4644332.696780577
880537,CVS Pharmacy 9992,3338 Arden Way,,Sacramento,CA,95825,2017,SACRAMENTO,Other,38.595787,-121.38588,,,-13512614.35109341,4663935.813188282
881145,CVS Pharmacy 3066,8351 Elk Grove Florin Rd,,Sacramento,CA,95829,9453,SACRAMENTO,Other,38.45438,-121.3716,,,-13511024.708764883,4643814.825120742
883164,River Park Market,5485 Carlson Dr,,Sacramento,CA,95819,2435,SACRAMENTO,Convenience Store,38.572899,-121.43237,,,-13517789.59422039,4660676.365686623
883374,CVS Pharmacy 9972,7465 Rush River Dr,Ste 500,Sacramento,CA,95831,5270,SACRAMENTO,Other,38.485664,-121.53588,,,-13529312.274712402,4648262.863041772
883899,CVS Pharmacy 4151,2050 Club Center Dr,,Sacramento,CA,95835,1324,SACRAMENTO,Other,38.670773,-121.5062,,,-13526008.312225658,4674621.750079283
886807,CVS Pharmacy 9823,1350 Florin Rd,,Sacramento,CA,95822,4202,SACRAMENTO,Other,38.495544,-121.50588,,,-13525972.689988606,4649668.027463361
890036,Circle 6 Food Store,739 Arden Way,,Sacramento,CA,95815,3104,SACRAMENTO,Convenience Store,38.606438,-121.44996,,,-13519747.704063443,4665452.961261459
890398,Four Oaks Market,2140 Grand Ave,,Sacramento,CA,95838,3999,SACRAMENTO,Convenience Store,38.636391,-121.41693,,,-13516070.821282541,4669720.729401968
891433,CVS Pharmacy 3943,5039 Folsom Blvd,,Sacramento,CA,95819,4440,SACRAMENTO,Other,38.560917,-121.44438,,,-13519126.541304816,4658970.440229155
891672,CVS Pharmacy 9826,5333 Elkhorn Blvd,,Sacramento,CA,95842,2589,SACRAMENTO,Other,38.686264,-121.34135,,,-13507657.294168387,4676830.701103496
893899,Star India Mart,8055 Elk Grove Florin Rd,Ste C,Sacramento,CA,95829,9446,SACRAMENTO,Grocery Store,38.464821,-121.37171,,,-13511036.95390887,4645299.138265958
894021,CVS Pharmacy 2290,1587 W El Camino Ave,,Sacramento,CA,95833,1992,SACRAMENTO,Other,38.612846,-121.49621,,,-13524896.230512632,4666365.837091814
899062,Natraj India Foods L.P.,4301 Truxel Rd,Ste D3,Sacramento,CA,95834,3752,SACRAMENTO,Other,38.649624,-121.50982,,,-13526411.288782328,4671606.763770257
901813,Target Store T-0310,2505 Riverside Blvd,,Sacramento,CA,95818,2257,SACRAMENTO,Super Store,38.563164,-121.49844,,,-13525144.472977102,4659290.332973824
901817,Target Store T-0311,5001 Madison Ave,,Sacramento,CA,95841,2604,SACRAMENTO,Super Store,38.660999,-121.34894,,,-13508502.209103506,4673228.264977718
913154,Rite Aid 6403,4241 Marconi Ave,,Sacramento,CA,95821,4215,SACRAMENTO,Other,38.617649,-121.36534,,,-13510327.848752517,4667050.120052258
919405,Primetime Nutrition 503,5655 Hillsdale Blvd,Ste 4,Sacramento,CA,95842,4000,SACRAMENTO,Grocery Store,38.670826,-121.35947,,,-13509674.40334156,4674629.306839948
919423,Primetime Nutrition 515,5037 Fruitridge Rd,,Sacramento,CA,95820,5433,SACRAMENTO,Grocery Store,38.525017,-121.44643,,,-13519354.746260945,4653860.914786081
923502,Costco Wholesale 0464,7981 E Stockton Blvd,,Sacramento,CA,95823,9606,SACRAMENTO,Super Store,38.469837,-121.41666,,,-13516040.765020028,4646012.299127762
923505,Costco Wholesale 0471,1600 Expo Pkwy,,Sacramento,CA,95815,4228,SACRAMENTO,Super Store,38.597904,-121.4533,,,-13520119.511162693,4664237.34464336
930838,La Riviera Market,9331 La Riviera Dr,,Sacramento,CA,95826,2411,SACRAMENTO,Convenience Store,38.562363,-121.35915,,,-13509638.781104507,4659176.297964417
934249,Compton's Market,4065 McKinley Blvd,,Sacramento,CA,95819,2045,SACRAMENTO,Grocery Store,38.578373,-121.44752,,,-13519476.084505906,4661455.81572871
940373,Baby Nutritional Care 108,8233 E Stockton Blvd,Ste B,Sacramento,CA,95828,8203,SACRAMENTO,Grocery Store,38.459248,-121.41005,,,-13515304.943185883,4644506.842865572
943363,Tooley Oil Company 12,730 29th St,,Sacramento,CA,95816,4118,SACRAMENTO,Convenience Store,38.576187,-121.4668,,,-13521622.324288404,4661144.541197017
944028,Oak Park Farmers Market,3500 5th Ave,,Sacramento,CA,95817,3103,SACRAMENTO,Farmers and Markets,38.548645,-121.46909,GusNIP,California Department of Food and Agriculture,-13521877.245922318,4657223.521082533
944175,CVS Pharmacy 9322,2085 Fair Oaks Blvd,,Sacramento,CA,95825,    ,SACRAMENTO,Other,38.574047,-121.41581,,,-13515946.143452853,4660839.8259909805
949448,Zamiri's AM/PM Inc.,2200 El Camino Ave,,Sacramento,CA,95821,4602,SACRAMENTO,Convenience Store,38.610806,-121.415,,,-13515855.97466531,4666075.212344333
959274,Mikes Liquor,5621 Hillsdale Blvd,,Sacramento,CA,95842,3028,SACRAMENTO,Convenience Store,38.670338,-121.3603,,,-13509766.798518918,4674559.727821065
959275,T.S. Food Mart,9408 Kiefer Blvd,,Sacramento,CA,95826,5563,SACRAMENTO,Convenience Store,38.546787,-121.34808,,,-13508406.474341424,4656959.060779789
961823,Break Time Mini Mart,924 8th St,,Sacramento,CA,95814,2506,SACRAMENTO,Convenience Store,38.581848,-121.49586,,,-13524857.268690854,4661950.656361859
965983,Stanford Market,3404 Martin Luther King Jr Blvd,,Sacramento,CA,95817,3637,SACRAMENTO,Convenience Store,38.543762,-121.46477,,,-13521396.345722092,4656528.508973963
968233,Poweron '76',3500 Watt Ave,,Sacramento,CA,95821,2616,SACRAMENTO,Convenience Store,38.628838,-121.3829,,,-13512282.619010845,4668644.393564618
968342,Mack Road AM/PM,6698 Mack Rd,,Sacramento,CA,95823,4615,SACRAMENTO,Convenience Store,38.474174,-121.42585,,,-13517063.791140418,4646628.961658303
970790,Target Store T-2492,6507 4th Ave,,Sacramento,CA,95817,2611,SACRAMENTO,Super Store,38.548367,-121.42624,,,-13517107.205741828,4657183.951237599
970797,El Centro Chevron,2738 El Centro Rd,,Sacramento,CA,95833,9703,SACRAMENTO,Convenience Store,38.615887,-121.53883,,,-13529640.667210242,4666799.082756158
970854,Norwood AM/PM 82675,4000 Norwood Ave,,Sacramento,CA,95838,2624,SACRAMENTO,Convenience Store,38.642506,-121.45684,,,-13520513.5821601,4670592.226975969
971029,European Delicatessen,4319B Elkhorn Blvd,,Sacramento,CA,95842,3772,SACRAMENTO,Supermarket,38.694595,-121.3629,,,-13510056.22919498,4678018.8641913505
971879,99 Ranch Market 76,4220 Florin Rd,Rear,Sacramento,CA,95823,2541,SACRAMENTO,Super Store,38.496002,-121.45642,,,-13520466.827973967,4649733.170325369
978785,Power Mart,9015 Folsom Blvd,,Sacramento,CA,95826,3401,SACRAMENTO,Convenience Store,38.557175,-121.36717,,,-13510531.56342067,4658437.734942146
984281,Mike's Liquor,5916 S Land Park Dr,,Sacramento,CA,95822,3313,SACRAMENTO,Convenience Store,38.519505,-121.51244,,,-13526702.945848208,4653076.636263504
985838,7-Eleven 34492A,2005 Marconi Ave,,Sacramento,CA,95821,1503,SACRAMENTO,Convenience Store,38.619797,-121.41891,,,-13516291.233874312,4667356.160239196
986456,Natomas Fabric & Groceries,3291 Truxel Rd,Ste 18,Sacramento,CA,95833,1065,SACRAMENTO,Grocery Store,38.627174,-121.49796,,,-13525091.03962152,4668407.281462245
988031,Jackson Shell,9701 Jackson Rd,,Sacramento,CA,95827,9723,SACRAMENTO,Convenience Store,38.528866,-121.33431,,,-13506873.604953201,4654408.607885412
989464,Elite Capital Investments,5960 24th St,,Sacramento,CA,95822,3640,SACRAMENTO,Convenience Store,38.515865,-121.48322,,,-13523450.190327229,4652558.749409865
992752,Papa Murphys Take N Bake Ca118,7465 Rush River Dr,Ste 420,Sacramento,CA,95831,5270,SACRAMENTO,Specialty Store,38.485664,-121.53588,,,-13529312.274712402,4648262.863041772
994208,Sikandar Cash And Carry 1,7472 Stockton Blvd,,Sacramento,CA,95823,    ,SACRAMENTO,Grocery Store,38.486378,-121.42457,,,-13516921.302192204,4648364.403890773
995141,La Nueva Tiendita,6035 Franklin Blvd,,Sacramento,CA,95824,2517,SACRAMENTO,Convenience Store,38.51646,-121.46928,,,-13521898.39662557,4652643.402201283
996024,Circle 7 Food Liquor & Gas,7601 Stockton Blvd,,Sacramento,CA,95823,3924,SACRAMENTO,Convenience Store,38.481197,-121.42165,,,-13516596.249279084,4647627.615605682
997666,Super Pure Water,1441 Meadowview Rd,Ste 108,Sacramento,CA,95832,1000,SACRAMENTO,Other,38.481319,-121.50325,,,-13525679.919727817,4647644.964576178
1000404,Rocket #5436 5436,3031 P St,,Sacramento,CA,95816,6523,SACRAMENTO,Convenience Store,38.566319,-121.46865,,,-13521828.26534637,4659739.5094498
1000427,Rocket #5519 5519,3480 Fair Oaks Blvd,,Sacramento,CA,95864,5732,SACRAMENTO,Convenience Store,38.574013,-121.38362,,,-13512362.769044217,4660834.984794605
1000590,Rocket #7968 7968,6500 Mack Rd,,Sacramento,CA,95823,4614,SACRAMENTO,Convenience Store,38.474152,-121.42691,,,-13517181.789800659,4646625.833463322
1006109,Boss's Market,3060 Martin Luther King Jr Blvd,,Sacramento,CA,95817,3334,SACRAMENTO,Convenience Store,38.546612,-121.46478,,,-13521397.458917,4656934.15233051
1008915,Florin Shell,8062 Florin Rd,,Sacramento,CA,95828,3141,SACRAMENTO,Convenience Store,38.495968,-121.40944,,,-13515237.0382965,4649728.33437815
1009357,El Pollo Loco # 3435,5055 Auburn Blvd,,Sacramento,CA,95841,    ,SACRAMENTO,Restaurant Meals Program,38.661572,-121.3461,,,-13508186.061749654,4673309.952686549
1014070,Indian Groceries,2010 Club Center Dr,Ste 170,Sacramento,CA,95835,1433,SACRAMENTO,Convenience Store,38.670769,-121.50551,,,-13525931.50177701,4674621.17975795
1019909,7-Eleven 34629A,5820 Antelope Rd,,Sacramento,CA,95842,    ,SACRAMENTO,Convenience Store,38.705524,-121.327,,,-13506059.859475503,4679577.762614374
1022067,Sanjog Investments Inc,7314 Elsie Ave,,Sacramento,CA,95828,4868,SACRAMENTO,Convenience Store,38.474323,-121.41772,,,-13516158.763680268,4646650.148094891
1024182,Dollar Tree 4670,4910 Freeport Blvd,,Sacramento,CA,95822,2153,SACRAMENTO,Other,38.529446,-121.49581,,,-13524851.702716315,4654491.141471693
1027230,Bonfare Market 40,861 Fulton Ave,,Sacramento,CA,95825,6418,SACRAMENTO,Convenience Store,38.581181,-121.40154,,,-13514357.614319231,4661855.673583639
1027935,Pizza Hut #11761,5323-A Elkhorn Blvd,,Sacramento,CA,95842,    ,SACRAMENTO,Restaurant Meals Program,38.687435,-121.34067,,,-13507581.596914647,4676997.700185876
1032136,Primetime 562,5580 Power Inn Rd,,Sacramento,CA,95820,    ,SACRAMENTO,Grocery Store,38.525242,-121.4092,,,-13515210.32161871,4653892.930334132
1041462,Franklin Gas Mart,4991 Franklin Blvd,,Sacramento,CA,95820,4729,SACRAMENTO,Convenience Store,38.530178,-121.47273,,,-13522282.448868807,4654595.3054992
1041943,Northgate Ampm,4747 Northgate Blvd,,Sacramento,CA,95834,1120,SACRAMENTO,Convenience Store,38.654797,-121.47879,,,-13522957.044983013,4672344.1407040525
1042285,Fast N Easy Food Mart,2101 El Camino Ave,,Sacramento,CA,95821,5503,SACRAMENTO,Convenience Store,38.610897,-121.41741,,,-13516124.254638124,4666088.17631139
1043668,Tinkus Market,2300 Sutterville Rd,Ste B,Sacramento,CA,95822,1416,SACRAMENTO,Convenience Store,38.539173,-121.48682,,,-13523850.940494083,4655875.38578323
1046368,Neighbourhood Grocery Store,402 12th St,,Sacramento,CA,95814,1404,SACRAMENTO,Convenience Store,38.586136,-121.48804,,,-13523986.750272851,4662561.30134488
1047405,Auburn Shell 30,3500 Auburn Blvd,,Sacramento,CA,95821,2006,SACRAMENTO,Convenience Store,38.637215,-121.38277,,,-13512268.147477042,4669838.159900002
1054942,Sprouts Farmers Market 267,4408 Del Rio Rd,,Sacramento,CA,95822,1126,SACRAMENTO,Supermarket,38.537315,-121.50375,,,-13525735.579473212,4655610.960308182
1056817,Papa Murphy's Pizza CA-096,4700 Mack Rd,Ste 1,Sacramento,CA,95823,4599,SACRAMENTO,Specialty Store,38.474194,-121.44603,,,-13519310.218464626,4646631.805472752
1060102,LA Superior Franklin Inc. 7,4604 Franklin Blvd,,Sacramento,CA,95820,1116,SACRAMENTO,Supermarket,38.532913,-121.47385,,,-13522407.126698496,4654984.506973338
1063374,Central Farmers' Market Ebt Association,2200 8th Ave,,Sacramento,CA,95818,4317,SACRAMENTO,Farmers and Markets,38.545559,-121.4889,,California Department of Food and Agriculture,-13524082.485034933,4656784.275912535
1064206,Marconi Food Mart,2434 Marconi Ave,,Sacramento,CA,95821,4808,SACRAMENTO,Convenience Store,38.618,-121.40513,,,-13514757.251291182,4667100.128785953
1064340,Florin Farmers' Market Ebt Association,3001 Florin Rd,,Sacramento,CA,95822,2302,SACRAMENTO,Farmers and Markets,38.497662,-121.4716,,California Department of Food and Agriculture,-13522156.657844208,4649969.2811126625
1064548,Food Stop,7601 Amherst St,,Sacramento,CA,95832,1025,SACRAMENTO,Convenience Store,38.48114,-121.50126,,,-13525458.393941138,4647619.5099492045
1065653,Prestige Liquor & Wine NO,1050 Howe Ave,,Sacramento,CA,95825,3907,SACRAMENTO,Convenience Store,38.58461,-121.41495,,,-13515850.408690771,4662343.982743253
1065655,Vinai Wholesale,6968 65th St,Ste F,Sacramento,CA,95823,2334,SACRAMENTO,Other,38.500237,-121.43693,,,-13518297.211098406,4650335.548070091
1068826,Capitol Grocery,1501 E St,,Sacramento,CA,95814,1604,SACRAMENTO,Convenience Store,38.583908,-121.48394,,,-13523530.340360599,4662244.012040911
1069863,Banwait Petro Inc,600 Rio Tierra Ave,,Sacramento,CA,95833,1204,SACRAMENTO,Convenience Store,38.627464,-121.47575,,,-13522618.633731004,4668448.604689921
1070468,Walmart 5982,2700 Marconi Ave,,Sacramento,CA,95821,    ,SACRAMENTO,Super Store,38.617004,-121.39904,,,-13514079.31559225,4666958.2242993
1071540,Downtown Ampm 82821,2225 16th St,,Sacramento,CA,95818,1510,SACRAMENTO,Convenience Store,38.56403,-121.49096,,,-13524311.803185968,4659413.6231903955
1071850,Fruitridge AM/PM 82749,8880 Fruitridge Rd,,Sacramento,CA,95826,9708,SACRAMENTO,Convenience Store,38.525223,-121.37117,,,-13510976.84138384,4653890.226795095
1073900,7-Eleven Store 35481A,1341 J St,,Sacramento,CA,95814,2916,SACRAMENTO,Convenience Store,38.579109,-121.48862,,,-13524051.31557751,4661560.620264459
1082712,Subway #2748,7623 Power Inn Rd,,Sacramento,CA,95828,4918,SACRAMENTO,Restaurant Meals Program,38.48064,-121.40849,,,-13515131.284780247,4647548.407974115
1083884,Bills Liquor and Deli,2905 Del Paso Blvd,,Sacramento,CA,95815,1422,SACRAMENTO,Convenience Store,38.619087,-121.43749,,,-13518359.550013252,4667255.000690349
1085504,Town Mart Liquor And Gas,7210 Roseville Rd,,Sacramento,CA,95842,1663,SACRAMENTO,Convenience Store,38.697414,-121.33656,,,-13507124.07380749,4678420.939906882
1085821,General Store And Deli,500 Capitol Mall,Ste 130,Sacramento,CA,95814,4743,SACRAMENTO,Convenience Store,38.578064,-121.50142,,,-13525476.205059664,4661411.815231464
1087235,Arden Way Chevron,860 Arden Way,,Sacramento,CA,95815,3106,SACRAMENTO,Convenience Store,38.606358,-121.44709,,,-13519428.217124866,4665441.565074715
1099268,99 Cent Only Store 0352,4440 Florin Rd,Ste B,Sacramento,CA,95823,2539,SACRAMENTO,Other,38.495975,-121.45411,,,-13520209.679950235,4649729.330014158
1105833,Sacramento Pocket Grocery Outlet,6419 Riverside Blvd,,Sacramento,CA,95831,1103,SACRAMENTO,Supermarket,38.510147,-121.54235,,,-13530032.511817833,4651745.264637533
1106687,DOLLAR GENERAL 14301,5245 Elkhorn Blvd,,Sacramento,CA,95842,2506,SACRAMENTO,Other,38.687305,-121.34286,,,-13507825.386599483,4676979.16044323
1110784,Dollar Tree 5211,2000 Club Center Dr,Ste 100,Sacramento,CA,95835,1423,SACRAMENTO,Other,38.670761,-121.50533,,,-13525911.464268668,4674620.03911538
1111574,DOLLAR GENERAL 14306,400 Harris Ave,,Sacramento,CA,95838,    ,SACRAMENTO,Other,38.638588,-121.45687,,,-13520516.921744823,4670033.832891274
1114777,Jimmy's Soul Food And Hmong Cuisine,1201 Grand Ave,,Sacramento,CA,95838,3620,SACRAMENTO,Grocery Store,38.636814,-121.43925,,,-13518555.47231705,4669781.012122505
1114808,DOLLAR GENERAL 14727,5705 Hillsdale Blvd,,Sacramento,CA,95842,3003,SACRAMENTO,Other,38.671314,-121.35873,,,-13509592.026918372,4674698.886333114
1115959,Jay St. Liquor,3712 J St,,Sacramento,CA,95816,5519,SACRAMENTO,Convenience Store,38.570366,-121.45643,,,-13520467.941168876,4660315.708592475
1119956,La Esperanza Supermarket of Sacramento,5040 Franklin Blvd,,Sacramento,CA,95820,4732,SACRAMENTO,Supermarket,38.529251,-121.47295,,,-13522306.939156782,4654463.3930365555
1120240,7-Eleven 35491A,2160 El Camino Ave,,Sacramento,CA,95821,5504,SACRAMENTO,Convenience Store,38.610813,-121.41571,,,-13515935.011503775,4666076.209571985
1120594,CVS Pharmacy 5225,2636 Marconi Ave,,Sacramento,CA,95821,5106,SACRAMENTO,Other,38.617973,-121.40038,,,-13514228.483709913,4667096.281951597
1121348,Eli's Market,4160 Stockton Blvd,,Sacramento,CA,95820,4020,SACRAMENTO,Convenience Store,38.537266,-121.44901,,,-13519641.95054719,4655603.986854722
1132595,Indika Foods Inc.,4641 Pell Dr,Ste 10,Sacramento,CA,95838,2000,SACRAMENTO,Other,38.651405,-121.47149,,,-13522144.412700225,4671860.627529957
1134798,Big Lots 1918,8700 La Riviera Dr,,Sacramento,CA,95826,1808,SACRAMENTO,Other,38.563965,-121.38004,,,-13511964.245267175,4659404.369254209
1134808,Country Club Plaza Farmers' Market,2310 Watt Ave,,Sacramento,CA,95825,0621,SACRAMENTO,Farmers and Markets,38.607586,-121.38182,Waiver,,-13512162.39396079,4665616.497940593
1135327,Big Lots 4115,6630 Valley HI Dr,,Sacramento,CA,95823,4602,SACRAMENTO,Other,38.471592,-121.42712,,,-13517205.166893726,4646261.831837867
1140123,DOLLAR GENERAL 14572,3701 Willow St,,Sacramento,CA,95838,3718,SACRAMENTO,Other,38.635323,-121.42918,,,-13517434.485044759,4669568.527803995
1148585,Dollar Tree 5580,2540 Watt Ave,,Sacramento,CA,95821,6312,SACRAMENTO,Other,38.611912,-121.38287,,,-13512279.279426124,4666232.775520018
1149717,Arco Ampm 04398,3921 Watt Ave,,Sacramento,CA,95821,2614,SACRAMENTO,Convenience Store,38.6366,-121.38312,,,-13512307.109298822,4669750.514436921
1150964,Marbo Ginseng Corp,5555 Sky Pkwy,Ste 219,Sacramento,CA,95823,7804,SACRAMENTO,Other,38.502022,-121.4362,,,-13518215.947870126,4650589.45343166
1157643,Star Mart Liquor & Groceries,7454 Stockton Blvd,Ste D,Sacramento,CA,95823,3200,SACRAMENTO,Convenience Store,38.487095,-121.42491,,,-13516959.150819072,4648466.372394377
1158509,Papa Murphy's Pizza CA260,5091 Fruitridge Rd,,Sacramento,CA,95820,5433,SACRAMENTO,Specialty Store,38.52499,-121.44513,,,-13519210.030922912,4653857.072927041
1165394,7 Eleven Store 36868A,6500 Folsom Blvd,Ste 1,Sacramento,CA,95819,4614,SACRAMENTO,Convenience Store,38.553963,-121.42744,,,-13517240.789130779,4657980.501746067
1168941,Tallac Bottle Shop,5994 14th Ave,,Sacramento,CA,95820,3208,SACRAMENTO,Convenience Store,38.539524,-121.43541,,,-13518128.005472401,4655925.339909655
1170504,Economy Liquor & Food,6685 Stockton Blvd 8,,Sacramento,CA,95823,    ,SACRAMENTO,Convenience Store,38.505714,-121.43362,,,-13517928.743583882,4651114.637878912
1170559,Mid Town Gas & Foodmart,1031 30th St,,Sacramento,CA,95816,5206,SACRAMENTO,Convenience Store,38.572308,-121.46689,,,-13521632.343042575,4660592.21597349
1172328,Kumar Circle Seven,2900 Watt Ave,,Sacramento,CA,95821,3507,SACRAMENTO,Convenience Store,38.61808,-121.38287,,,-13512279.279426124,4667111.5268221805
1175675,Smart & Final 479,7205 Freeport Blvd,,Sacramento,CA,95831,    ,SACRAMENTO,Super Store,38.478184,-121.50477,,,-13525849.125353822,4647199.162233579
1178878,Pints N Fifths Liquor Store,6432 Stockton Blvd,,Sacramento,CA,95823,1605,SACRAMENTO,Convenience Store,38.509319,-121.43536,,,-13518122.439497862,4651627.472617072
1179619,Power Inn Chevron,8099 Folsom Blvd,,Sacramento,CA,95826,2612,SACRAMENTO,Convenience Store,38.549686,-121.41001,,,-13515300.49040625,4657371.695853705
1180258,7 Eleven Store 35351A,6955 Walerga Rd,,Sacramento,CA,95842,1872,SACRAMENTO,Convenience Store,38.693699,-121.36373,,,-13510148.624372339,4677891.070475207
1180273,7 Eleven Store 23233D,8499 Gerber Rd,,Sacramento,CA,95828,3711,SACRAMENTO,Convenience Store,38.481716,-121.39047,,,-13513125.307556152,4647701.420035882
1181007,Prime Time Nutrition 574,2143 Hurley Way,Ste 101,Sacramento,CA,95825,3299,SACRAMENTO,Grocery Store,38.588928,-121.41622,,,-13515991.784444077,4662958.923742609
1181116,Yisrael Family Urban Farm,4505 Roosevelt Ave,,Sacramento,CA,95820,4545,SACRAMENTO,Farmers and Markets,38.53373,-121.45396,,,-13520192.982026614,4655100.7722214665
1182326,Liquor Locker,3399 Watt Ave,,Sacramento,CA,95821,3615,SACRAMENTO,Convenience Store,38.627392,-121.38309,,,-13512303.769714095,4668438.345114349
1183681,Silver Gas & Food,4625 El Camino Ave,,Sacramento,CA,95821,6754,SACRAMENTO,Convenience Store,38.610451,-121.35566,,,-13509250.276081637,4666024.6387838945
1185050,Deluxe Grocery Store,1238 E St,,Sacramento,CA,95814,1458,SACRAMENTO,Convenience Store,38.584492,-121.48713,,,-13523885.449536229,4662327.178482794
1188737,Chevron 1709,1940 65th St,,Sacramento,CA,95817,1817,SACRAMENTO,Convenience Store,38.551636,-121.42786,,,-13517287.54331691,4657649.262437373
1190986,Sacramento Dunnigan Holding Co.,4300 Watt Ave,,Sacramento,CA,95821,7012,SACRAMENTO,Convenience Store,38.643017,-121.38311,,,-13512305.996103914,4670665.057040883
1191253,House Of Cheer,6660 Florin Rd,,Sacramento,CA,95828,2809,SACRAMENTO,Convenience Store,38.495953,-121.42533,,,-13517005.905005205,4649726.200872751
1193592,A1marketplace,7261 Stockton Blvd,,Sacramento,CA,95823,2703,SACRAMENTO,Convenience Store,38.492733,-121.42714,,,-13517207.39328354,4649268.218662687
1193719,Shan Market,2313 Northgate Blvd,,Sacramento,CA,95833,2504,SACRAMENTO,Grocery Store,38.609077,-121.47561,,,-13522603.04900229,4665828.900094402
1195369,CVS 10005,6401 Mack Rd,,Sacramento,CA,95823,4656,SACRAMENTO,Other,38.474339,-121.42781,,,-13517281.97734237,4646652.423151088
1196303,Smart & Final 724,3315 Northgate Blvd,Ste 4,Sacramento,CA,95834,1638,SACRAMENTO,Super Store,38.62838,-121.47556,,,-13522597.48302775,4668579.13018951
1197189,Sierra Fresh Farmers' Markets Kaiser Point West,1650 Response Rd,,Sacramento,CA,95815,4807,SACRAMENTO,Farmers and Markets,38.596313,-121.42802,,California Department of Food and Agriculture,-13517305.35443544,4664010.732313306
1197201,Sierra Fresh Farmers' Markets Kaiser Morse Ave,2025 Morse Ave,,Sacramento,CA,95825,2100,SACRAMENTO,Farmers and Markets,38.602859,-121.39223,,California Department of Food and Agriculture,-13513321.229859946,4664943.136786565
1199384,Chevron 1754,2700 Del Paso Rd,,Sacramento,CA,95834,9625,SACRAMENTO,Convenience Store,38.655785,-121.52238,,,-13527809.461586691,4672484.97962524
1204375,Chevron 1578,4221 Raley Blvd,,Sacramento,CA,95838,2840,SACRAMENTO,Convenience Store,38.644691,-121.42918,,,-13517434.485044759,4670903.646839985
1204500,Chevron 2216,4300 Madison Ave,,Sacramento,CA,95842,3530,SACRAMENTO,Convenience Store,38.660973,-121.36384,,,-13510160.869516326,4673224.55839561
1205176,Chevron 1590,201 Richards Blvd,,Sacramento,CA,95811,0216,SACRAMENTO,Convenience Store,38.597279,-121.50175,,,-13525512.940491626,4664148.322858753
1207232,East Market & Restaurant,3405 El Camino Ave,Ste 1,Sacramento,CA,95821,6309,SACRAMENTO,Grocery Store,38.610523,-121.38526,,,-13512545.33300912,4666034.895936486
1207915,Midtown Farmers' Market EBT Association,1050 20th St,,Sacramento,CA,95811,    ,SACRAMENTO,Farmers and Markets,38.576225,-121.48016,,California Department of Food and Agriculture,-13523109.5526854,4661149.952109804
1208563,La Popular Supermarket Inc,9180 Kiefer Blvd,,Sacramento,CA,95826,5154,SACRAMENTO,Grocery Store,38.547264,-121.35883,,,-13509603.15886745,4657026.954403617
1208622,Greenhaven Liquors,6421 Riverside Blvd,,Sacramento,CA,95831,1103,SACRAMENTO,Convenience Store,38.510326,-121.54208,,,-13530002.45555532,4651770.72951567
1210257,Ez Stop 1,3625 S Port Dr,,Sacramento,CA,95826,5129,SACRAMENTO,Convenience Store,38.546421,-121.3623,,,-13509989.437500507,4656906.966606479
1210706,Come N Go,4516 Freeport Blvd,,Sacramento,CA,95822,2006,SACRAMENTO,Convenience Store,38.533867,-121.49429,,,-13524682.497090312,4655120.268481688
1210812,Lao Market,5830 Franklin Blvd,,Sacramento,CA,95824,1122,SACRAMENTO,Other,38.52079,-121.47087,,,-13522075.394615931,4653259.467959468
1214383,Viva Supermarket,3845 Marysville Blvd,,Sacramento,CA,95838,3770,SACRAMENTO,Supermarket,38.637798,-121.42951,,,-13517471.22047672,4669921.2456430765
1214705,Mike & Baljit Inc,2500 Fulton Ave,,Sacramento,CA,95821,5908,SACRAMENTO,Convenience Store,38.61097,-121.40146,,,-13514348.70875997,4666098.575989153
1216163,Walmart Supercenter 3081,8915 Gerber Rd,,Sacramento,CA,95829,1155,SACRAMENTO,Super Store,38.481659,-121.36989,,,-13510834.352435626,4647693.314321038
1220537,A1 Market,6636 Sunnyslope Dr,,Sacramento,CA,95828,2804,SACRAMENTO,Convenience Store,38.4972,-121.42517,,,-13516988.093886677,4649903.567804977
1228782,H&S Energy Products LLC 3031,2150 Marconi Ave,,Sacramento,CA,95821,1506,SACRAMENTO,Convenience Store,38.618263,-121.41558,,,-13515920.539969971,4667137.59987785
1228785,H&S Energy Products LLC 3028,4430 Auburn Blvd,,Sacramento,CA,95841,4150,SACRAMENTO,Convenience Store,38.64798,-121.36029,,,-13509765.685324011,4671372.433593178
1230549,Yong Tai Ginseng,6835 Stockton Blvd,Ste 410,Sacramento,CA,95823,2351,SACRAMENTO,Other,38.502319,-121.43201,,,-13517749.519203706,4650631.700480562
1231241,Shams Market,3510 Auburn Blvd,Ste 4,Sacramento,CA,95821,2067,SACRAMENTO,Grocery Store,38.636765,-121.3815,,,-13512126.771723736,4669774.028999544
1232895,Gerber Ampm 83193,8100 Gerber Rd,,Sacramento,CA,95828,4402,SACRAMENTO,Convenience Store,38.481392,-121.40821,,,-13515100.115322825,4647655.345531583
1236096,Carniceria Familia Lopez 3 1,2160 Marconi Ave,,Sacramento,CA,95821,1529,SACRAMENTO,Grocery Store,38.618122,-121.41472,,,-13515824.80520789,4667117.510796289
1238327,Bonfare Market 38,2600 Rio Linda Blvd,,Sacramento,CA,95815,2221,SACRAMENTO,Convenience Store,38.614799,-121.44611,,,-13519319.12402389,4666644.075291729
1240160,CVS/PHARMACY 7136,3710 Franklin Blvd,,Sacramento,CA,95820,1128,SACRAMENTO,Other,38.54055,-121.47575,,,-13522618.633731004,4656071.3610615395
1240754,Sutterville Shell,3701 Franklin Blvd,,Sacramento,CA,95820,1127,SACRAMENTO,Convenience Store,38.540798,-121.47574,,,-13522617.520536093,4656106.656935205
1242437,Florin Cigarette Market,2314 Florin Rd,,Sacramento,CA,95822,4403,SACRAMENTO,Convenience Store,38.495674,-121.48462,,,-13523606.037614338,4649686.51775328
1247387,Florin Foodmart And Gasoline,2460 Florin Rd,,Sacramento,CA,95822,4443,SACRAMENTO,Convenience Store,38.495712,-121.47997,,,-13523088.401982151,4649691.922613558
1249263,Wing Fa Market,2018 16th St,,Sacramento,CA,95818,1507,SACRAMENTO,Other,38.566437,-121.49032,,,-13524240.558711858,4659756.309459687
1254920,Beryozka Market Inc. 426,9791 Lincoln Village Dr,Ste A,Sacramento,CA,95827,3326,SACRAMENTO,Grocery Store,38.561836,-121.33149,,,-13506559.683989163,4659101.2718786085
1255159,Freeport Asian Market ,5008 Freeport Blvd,,Sacramento,CA,95822,2737,SACRAMENTO,Other,38.528576,-121.49606,,,-13524879.532589013,4654367.341341743
1255678,Sacramento Natural Foods Co-operative Inc.,2820 R Street,,Sacramento,CA,95816,    ,SACRAMENTO,Super Store,38.564915,-121.47279,,,-13522289.128038255,4659539.619923564
1256626,WinCo 133,2300 Watt Ave,,Sacramento,CA,95825,0621,SACRAMENTO,Supermarket,38.60685,-121.38286,,,-13512278.166231213,4665511.651824401
1257410,Fast Stop Food Store,750 46th St,,Sacramento,CA,95819,3149,SACRAMENTO,Convenience Store,38.570473,-121.44489,,,-13519183.314245122,4660330.943356609
1262243,Express Stop Food & Liquor,5412 Madison Ave,Ste 150,Sacramento,CA,95841,3198,SACRAMENTO,Convenience Store,38.660683,-121.3385,,,-13507340.033619625,4673183.215840238
1263368,Papa Murphy Pizza ca257,2701 Del Paso Rd,,Sacramento,CA,95835,2305,SACRAMENTO,Specialty Store,38.656029,-121.52248,,,-13527820.593535772,4672519.762006108
1263701,Rosemont Shell Inc.,9100 Kiefer Blvd,,Sacramento,CA,95826,5106,SACRAMENTO,Convenience Store,38.547222,-121.36195,,,-13509950.475678725,4657020.976330609
1263901,Stop-n-save Mart,921 Grand Ave,,Sacramento,CA,95838,3414,SACRAMENTO,Convenience Store,38.636818,-121.44529,,,-13519227.842041438,4669781.58217357
1264703,Bonfare Market 33,809 20th St,,Sacramento,CA,95811,3103,SACRAMENTO,Convenience Store,38.578579,-121.47904,,,-13522984.874855712,4661485.149498698
1264725,Sinbad Market & Bakery,3033 Hurley Way,Ste 103,Sacramento,CA,95864,3702,SACRAMENTO,Grocery Store,38.589016,-121.39269,,,-13513372.436825713,4662971.45650505
1269035,Gk Discount Liquor,8484 Florin Rd,Suite 20,Sacramento,CA,95828,2524,SACRAMENTO,Convenience Store,38.496063,-121.39147,,,-13513236.627046945,4649741.846589334
1269671,Carniceria Mi Mercadito LLC,5637 Mack Rd,,Sacramento,CA,95823,4670,SACRAMENTO,Grocery Store,38.47435,-121.43569,,,-13518159.174929822,4646653.987252516
1269968,Rosemont Wine & Liquor,9106 Kiefer Blvd,,Sacramento,CA,95826,5106,SACRAMENTO,Convenience Store,38.547222,-121.36156,,,-13509907.061077317,4657020.976330609
1273791,Super Star Plus Corp,6351 Franklin Blvd,,Sacramento,CA,95824,3616,SACRAMENTO,Convenience Store,38.510754,-121.46711,,,-13521656.833330547,4651831.617860827
1274159,Subway Sandwiches 51761,1250 Howe Ave,Ste 12B,Sacramento,CA,95825,    ,SACRAMENTO,Restaurant Meals Program,38.58786,-121.41527,,,-13515886.030927826,4662806.822804672
1275456,Prime TIme 579,3821 41st Ave,,Sacramento,CA,95824,2511,SACRAMENTO,Grocery Store,38.515846,-121.46397,,,-13521307.290129457,4652556.046223011
1275530,La Victoria Supermercado 1,2537 Del Paso Blvd,,Sacramento,CA,95815,2510,SACRAMENTO,Grocery Store,38.612873,-121.44646,,,-13519358.085845666,4666369.683651237
1278220,Florin Fuel Inc.,5500 Florin Rd,,Sacramento,CA,95823,2203,SACRAMENTO,Convenience Store,38.496021,-121.44116,,,-13518768.092544464,4649735.872767455
1278709,Capital Food & Liquor,10009 Folsom Blvd,,Sacramento,CA,95827,1409,SACRAMENTO,Convenience Store,38.580357,-121.32072,,,-13505360.773073321,4661738.334757749
1278910,RALEY'S 435,2075 FAIR OAKS BLVD,STE 130,SACRAMENTO,CA,95825,    ,SACRAMENTO,Supermarket,38.573975,-121.41595,,,-13515961.728181563,4660829.574048426
1279394,7 Eleven 39887A,3449 El Camino Ave,,Sacramento,CA,95821,6309,SACRAMENTO,Convenience Store,38.610847,-121.38352,,,-13512351.637095138,4666081.053250532
1281422,Meadowview Chevron,1481 Meadowview Rd,,Sacramento,CA,95832,1009,SACRAMENTO,Convenience Store,38.481339,-121.50166,,,-13525502.921737455,4647647.808672504
1281608,Tm Meats Market,6181 Mack Rd,,Sacramento,CA,95823,4654,SACRAMENTO,Grocery Store,38.474335,-121.43018,,,-13517545.804535553,4646651.854386991
1281745,Papa Murphy CA093,5412 Madison Ave,,Sacramento,CA,95841,3100,SACRAMENTO,Specialty Store,38.660683,-121.3385,,,-13507340.033619625,4673183.215840238
1286084,Liquor Loft,9791 Lincoln Village Dr,Ste I,Sacramento,CA,95827,3326,SACRAMENTO,Convenience Store,38.561836,-121.33149,,,-13506559.683989163,4659101.2718786085
1287919,Sacramento Liquor,3805 Pasadena Ave,Ste A,Sacramento,CA,95821,2884,SACRAMENTO,Convenience Store,38.639404,-121.37506,,,-13511409.874203028,4670150.126845468
1290482,Grocery Outlet Of Midtown Sacramento,1700 Capitol Ave,,Sacramento,CA,95811,5104,SACRAMENTO,Super Store,38.574306,-121.48495,,,-13523642.7730463,4660876.704591509
1292277,Bell Market,1725 Bell St,,Sacramento,CA,95825,3315,SACRAMENTO,Convenience Store,38.59687,-121.41076,,,-13515383.980024347,4664090.067422495
1292976,Asian Food Center,1301 Broadway,,Sacramento,CA,95818,2217,SACRAMENTO,Grocery Store,38.56263,-121.49608,,,-13524881.75897883,4659214.3094930025
1295029,Del Taco LLC dba Del Taco 140,2200 Arden Way,,Sacramento,CA,95825,3302,SACRAMENTO,Restaurant Meals Program,38.595852,-121.4148,,,-13515833.710767152,4663945.071225334
1295041,Del Taco LLC dba Del Taco 194,4337 Elkhorn Blvd,,Sacramento,CA,95842,3775,SACRAMENTO,Restaurant Meals Program,38.694843,-121.36175,,,-13509928.211780569,4678054.235949205
1295291,Del Taco LLC dba Del Taco 583,3027 K St,,Sacramento,CA,95816,    ,SACRAMENTO,Restaurant Meals Program,38.572105,-121.46597,,,-13521529.929111043,4660563.311917021
1295302,Del Taco LLC dba Del Taco 742,2525 Watt Ave,,Sacramento,CA,95821,    ,SACRAMENTO,Restaurant Meals Program,38.611393,-121.38351,,,-13512350.52390023,4666158.837343963
1295466,Greenhaven Shell 51,4050 Florin Rd,,Sacramento,CA,95823,1804,SACRAMENTO,Convenience Store,38.495922,-121.45956,,,-13520816.371175058,4649721.791629665
1295475,Willhavin Shell 26,3510 Fair Oaks Blvd,,Sacramento,CA,95864,7202,SACRAMENTO,Convenience Store,38.574059,-121.38258,,,-13512246.996773792,4660841.534649071
1295480,Natomas Shell 56,1599 W El Camino Ave,,Sacramento,CA,95833,1992,SACRAMENTO,Convenience Store,38.612785,-121.49733,,,-13525020.90834232,4666357.146722151
1295481,Jibboom Street Shell 28,225 Jibboom St,,Sacramento,CA,95811,0107,SACRAMENTO,Convenience Store,38.5961,-121.50564,,,-13525945.973310813,4663980.394274483
1295483,Park Place Shell 36,2221 Del Paso Rd,,Sacramento,CA,95835,2220,SACRAMENTO,Convenience Store,38.656178,-121.51033,,,-13526468.061722634,4672541.002124823
1295517,Del Taco LLC dba Del Taco 887,8230 Calvine Rd,,Sacramento,CA,95624,    ,SACRAMENTO,Restaurant Meals Program,38.455414,-121.40408,,,-13514640.365825849,4643961.811015304
1295539,Del Taco LLC dba Del Taco 977,3531 Truxel Rd,,Sacramento,CA,95834,    ,SACRAMENTO,Restaurant Meals Program,38.635838,-121.50293,,,-13525644.297490764,4669641.920613547
1296915,7 Eleven 2364-37217a 37217A,1301 Howe Ave,,Sacramento,CA,95825,3201,SACRAMENTO,Convenience Store,38.58934,-121.4155,,,-13515911.634410707,4663017.599990055
1297407,R & L Thompson,3950 Truxel Rd,,Sacramento,CA,95834,3606,SACRAMENTO,Convenience Store,38.64093,-121.50819,,,-13526229.838012334,4670367.611494512
1297537,Papa Murphy's Pizza CA081,3291 Truxel Rd,Ste 29,Sacramento,CA,95833,1065,SACRAMENTO,Specialty Store,38.627071,-121.49792,,,-13525086.586841889,4668392.604631947
1299122,Speedway 2098,2650 Gateway Oaks Dr,,Sacramento,CA,95833,3903,SACRAMENTO,Convenience Store,38.613941,-121.51703,,,-13527213.902310949,4666521.837607396
1300921,Walmart 2464,8270 Delta Shores Cir S,,Sacramento,CA,95832,    ,SACRAMENTO,Super Store,38.459522,-121.49305,,,-13524544.460921725,4644545.795129294
1301439,Berfoods Inc dba Wingstop,5950 Florin Rd,Ste 100,Sacramento,CA,95823,    ,SACRAMENTO,Restaurant Meals Program,38.495518,-121.43612,,,-13518207.042310866,4649664.329409381
1301856,Babylon City Market,1745 Watt Ave,,Sacramento,CA,95825,2141,SACRAMENTO,Grocery Store,38.597343,-121.38312,,,-13512307.109298822,4664157.438653872
1303177,Super X Market,2711 Fairfield St,,Sacramento,CA,95815,1602,SACRAMENTO,Supermarket,38.61702,-121.45234,,,-13520012.644451533,4666960.5038738735
1303661,99 Plus Mart ,6665 Stockton Blvd,Ste 2,Sacramento,CA,95823,1634,SACRAMENTO,Convenience Store,38.506145,-121.43383,,,-13517952.120676948,4651175.949085876
1304300,Punjab Bazaar Cash And Carry,5764 Antelope Rd,Ste B2,Sacramento,CA,95842,3901,SACRAMENTO,Grocery Store,38.705105,-121.32723,,,-13506085.462958384,4679517.992604458
1305107,Speedway 1469,2281 El Camino Ave,,Sacramento,CA,95821,4638,SACRAMENTO,Convenience Store,38.610817,-121.41112,,,-13515424.055041034,4666076.779416401
1310142,Moos Pheeb Market,2300 Florin Rd,,Sacramento,CA,95822,4403,SACRAMENTO,Grocery Store,38.495419,-121.48518,,,-13523668.376529181,4649650.248369905
1310698,Sprouts Farmers Market 422,2810 Del Paso Rd,,Sacramento,CA,95834,9677,SACRAMENTO,Supermarket,38.655716,-121.52451,,,-13528046.572102085,4672475.1436455855
1311902,Family Dollar 12131,4207 Norwood Ave,,Sacramento,CA,95838,2686,SACRAMENTO,Other,38.645203,-121.45695,,,-13520525.827304088,4670976.621655032
1312109,Muir Way Market,2736 Muir Way,,Sacramento,CA,95818,2196,SACRAMENTO,Grocery Store,38.559361,-121.50464,,,-13525834.65382002,4658748.927126289
1312943,Pocket Road Shell 53,8900 Pocket Rd,,Sacramento,CA,95831,4456,SACRAMENTO,Convenience Store,38.481216,-121.5079,,,-13526197.555360008,4647630.3174926
1312962,Rocket #5437 5437,4705 Florin Rd,,Sacramento,CA,95823,2515,SACRAMENTO,Convenience Store,38.496193,-121.45092,,,-13519854.570774605,4649760.33701246
1313132,Morales Carniceria & Market LLC,6830 Stockton Blvd,Ste 195,Sacramento,CA,95823,2324,SACRAMENTO,Grocery Store,38.502853,-121.43234,,,-13517786.254635666,4650707.660259212
1314093,Burger King 4135,5150 Stockton Blvd,,Sacramento,CA,95820,    ,SACRAMENTO,Restaurant Meals Program,38.527836,-121.44438,,,-13519126.541304816,4654262.04125981
1314099,Quikserve Ent Inc dba Burger King 1782,7218 Stockton Blvd,,Sacramento,CA,95823,2704,SACRAMENTO,Restaurant Meals Program,38.495239,-121.42931,,,-13517448.956578562,4649624.646529523
1314306,Quikserve Ent Inc dba Burger King 1841,1915 Arden Way,,Sacramento,CA,95815,    ,SACRAMENTO,Restaurant Meals Program,38.598095,-121.42126,,,-13516552.834677676,4664264.549855372
1314429,Burger King 3223,5610 Freeport Blvd,,Sacramento,CA,95822,    ,SACRAMENTO,Restaurant Meals Program,38.52396,-121.49801,,,-13525096.60559606,4653710.514195505
1315623,Food 4 Less 014,4551 Mack Rd,,Sacramento,CA,95823,4532,SACRAMENTO,Supermarket,38.474419,-121.44963,,,-13519710.96863148,4646663.798439643
1316268,King Wine And Liquor 2,2346 Fruitridge Rd,,Sacramento,CA,95822,3148,SACRAMENTO,Convenience Store,38.524708,-121.48428,,,-13523568.18898747,4653816.94692988
1319948,Singhs Fd Serv Inc dba Burger King 16003,5550 S Watt Ave,,Sacramento,CA,95826,    ,SACRAMENTO,Restaurant Meals Program,38.525593,-121.37091,,,-13510947.898316234,4653942.874788968
1320028,La Morena Food Mart n/a,4128 El Camino Ave,,Sacramento,CA,95821,6676,SACRAMENTO,Convenience Store,38.610256,-121.36753,,,-13510571.638437355,4665996.859047315
1322950,Long Cheng Market,6241 Franklin Blvd,,Sacramento,CA,95824,3446,SACRAMENTO,Grocery Store,38.512863,-121.46795,,,-13521750.341702815,4652131.65473539
1323908,Cigarette Land,4215 Norwood Ave,Ste 11,Sacramento,CA,95838,4933,SACRAMENTO,Convenience Store,38.645451,-121.45695,,,-13520525.827304088,4671011.969018517
1324676,Natomas Wine And Spirits,1620 W El Camino Ave,Ste 155,Sacramento,CA,95833,3631,SACRAMENTO,Convenience Store,38.612568,-121.4996,,,-13525273.60358642,4666326.231860463
1325125,Prit Market,3946 Martin Luther King Jr Blvd,,Sacramento,CA,95820,2723,SACRAMENTO,Convenience Store,38.538826,-121.4648,,,-13521399.685306815,4655826.001174211
1325148,Quality Cigarettes Plus,988 El Camino Ave,,Sacramento,CA,95815,2529,SACRAMENTO,Convenience Store,38.610847,-121.44412,,,-13519097.59823721,4666081.053250532
1325261,Sj Market Dollar Plus,2541 Del Paso Blvd,,Sacramento,CA,95815,2510,SACRAMENTO,Convenience Store,38.613441,-121.44632,,,-13519342.501116956,4666450.604199856
1325738,Indian Cash & Carry,3150 Macon Dr,,Sacramento,CA,95835,2676,SACRAMENTO,Grocery Store,38.679825,-121.53099,,,-13528767.922402421,4675912.468896756
1325969,SF Supermarket,5820 S Land Park Dr,,Sacramento,CA,95822,3311,SACRAMENTO,Super Store,38.520702,-121.51225,,,-13526681.795144955,4653246.947085519
1327922,International Rescue Committee New Roots Farmstand,3130 Wright St,Bohemian Park,Sacramento,CA,95821,    ,SACRAMENTO,Farmers and Markets,38.622314,-121.40601,GusNIP,California Department of Food and Agriculture,-13514855.21244308,4667714.786031689
1328059,Sprouts Farmers Market 434,2735 Marconi Ave,,Sacramento,CA,95821,4913,SACRAMENTO,Supermarket,38.618042,-121.39828,,,-13513994.712779246,4667106.112753388
1328253,Papa Murphy's Pizza CA095,2805 Marconi Ave,Ste 3,Sacramento,CA,95821,5219,SACRAMENTO,Specialty Store,38.617989,-121.39762,,,-13513921.241915325,4667098.561556968
1328453,Papa Murphy's Take And Bake Pizza Number Ca112 CA112,3557 Bradshaw Rd,Ste 2D,Sacramento,CA,95827,3373,SACRAMENTO,Specialty Store,38.558353,-121.3361,,,-13507072.866841722,4658605.430194918
1329103,Subway #41775,700 N 10th St,,Sacramento,CA,95811,0338,SACRAMENTO,Restaurant Meals Program,38.598282,-121.48627,,,-13523789.714774149,4664291.185394862
1329785,Sun Up Market,2620 T St,,Sacramento,CA,95816,7360,SACRAMENTO,Convenience Store,38.563179,-121.47585,,,-13522629.765680082,4659292.468473014
1330386,S&s Madison Llc 83689,4700 Madison Ave,,Sacramento,CA,95841,2517,SACRAMENTO,Convenience Store,38.660877,-121.35481,,,-13509155.654514462,4673210.87256564
1337785,Preet Food And Liquor Inc,9689 Folsom Blvd,,Sacramento,CA,95827,1202,SACRAMENTO,Convenience Store,38.572365,-121.33685,,,-13507156.356459815,4660600.3319055075
1345857,AMRIT & HARMAN INC SUBWAY 2748,7623 Power Inn Rd,,Sacramento,CA,95828,4918,SACRAMENTO,Restaurant Meals Program,38.48064,-121.40849,,,-13515131.284780247,4647548.407974115
1348144,Haggin Oaks Market,3560 Del Paso Blvd,,Sacramento,CA,95838,4037,SACRAMENTO,Convenience Store,38.63081,-121.4183,,,-13516223.328984927,4668925.401330331
1350333,Soni's Supermarket,7400 Elsie Ave,,Sacramento,CA,95828,4805,SACRAMENTO,Grocery Store,38.473846,-121.41737,,,-13516119.801858492,4646582.323213925
1350676,7 Eleven 2365-18185d 18185D,5791 Broadway,,Sacramento,CA,95820,1801,SACRAMENTO,Convenience Store,38.547001,-121.43822,,,-13518440.813241532,4656989.520337294
1350848,Dhillon's El Camino Shell,2400 Del Paso Blvd,,Sacramento,CA,95815,2509,SACRAMENTO,Convenience Store,38.611412,-121.44767,,,-13519492.782429527,4666161.544127105
1352747,Sutter Medical Center Sacramento Farmers Market,2825 Capitol Ave,,Sacramento,CA,95816,5680,SACRAMENTO,Farmers and Markets,38.570801,-121.46964,,California Department of Food and Agriculture,-13521938.471642256,4660377.6444572015
1352797,Dollar Tree 7656,3615 Bradshaw Rd,,Sacramento,CA,95827,3258,SACRAMENTO,Other,38.556118,-121.33475,,,-13506922.585529152,4658287.267092739
1352817,Safeway 3013,3680 Crocker Dr,,Sacramento,CA,95818,3959,SACRAMENTO,Supermarket,38.540779,-121.48383,,,-13523518.095216611,4656103.952811547
1355226,Punjabi Bazar Supermarket,8851 Calvine Rd,Suite F,Sacramento,CA,95828,9304,SACRAMENTO,Grocery Store,38.453342,-121.3743,,,-13511325.271390026,4643667.272734129
1357015,Arco Ampm 7131,9670 Kiefer Blvd,,Sacramento,CA,95827,3819,SACRAMENTO,Convenience Store,38.543591,-121.33587,,,-13507047.26335884,4656504.170883769
1357037,King Wine & Liquor # 3 N/A,1120 Fulton Ave,Ste A,Sacramento,CA,95825,4209,SACRAMENTO,Convenience Store,38.58559,-121.40083,,,-13514278.57748077,4662483.544617396
1357361,Northgate Arco Am/pm 83973,3501 Northgate Blvd,,Sacramento,CA,95834,1623,SACRAMENTO,Convenience Store,38.630051,-121.47625,,,-13522674.293476399,4668817.243775355
1357453,Life Pure Water,8347 Elk Grove Florin Rd,Ste 123,Sacramento,CA,95829,9522,SACRAMENTO,Convenience Store,38.454716,-121.37024,,,-13510873.314257402,4643862.588197793
1359394,Astro Am/pm 2166,1855 Watt Ave,,Sacramento,CA,95825,2142,SACRAMENTO,Convenience Store,38.598534,-121.3836,,,-13512360.5426544,4664327.079386715
1360427,Arteaga's Market,3100 Arden Way,,Sacramento,CA,95825,2002,SACRAMENTO,Convenience Store,38.5956,-121.39188,,,-13513282.26803817,4663909.178574588
1360714,Rocket #5435 5435,2200 Fair Oaks Blvd,,Sacramento,CA,95825,5502,SACRAMENTO,Convenience Store,38.573875,-121.41467,,,-13515819.239233349,4660815.335256373
1361374,Kings Market,6421 Martin Luther King Jr Blvd,Ste 103,Sacramento,CA,95823,1157,SACRAMENTO,Convenience Store,38.50956,-121.4641,,,-13521321.76166326,4651661.757352846
1362574,Indian Grocery Outlet,2101 Natomas Crossing Dr,Ste 300,Sacramento,CA,95834,3846,SACRAMENTO,Convenience Store,38.640121,-121.50983,,,-13526412.401977235,4670252.312699512
1363043,Folsom Gas Mart,8461 Folsom Blvd,,Sacramento,CA,95826,3515,SACRAMENTO,Convenience Store,38.547829,-121.39208,,,-13513304.53193633,4657107.37405853
1364935,Natomas Farmers Market,2501 New Market Dr,,Sacramento,CA,95835,2238,SACRAMENTO,Farmers and Markets,38.660393,-121.51862,,California Department of Food and Agriculture,-13527390.900301311,4673141.873452274
1365121,Freeport Gas & Food,4011 Freeport Blvd,,Sacramento,CA,95822,1339,SACRAMENTO,Convenience Store,38.537594,-121.49261,,,-13524495.480345774,4655650.666388816
1365768,Prime Time Nutrition 583,7171 Bowling Dr,Suite 900,Sacramento,CA,95823,    ,SACRAMENTO,Grocery Store,38.49749,-121.45532,,,-13520344.376534095,4649944.816368785
1366294,Sac Valley Truck Stop,7891 Stockton Blvd,,Sacramento,CA,95823,4307,SACRAMENTO,Convenience Store,38.471455,-121.41678,,,-13516054.123358922,4646242.3524277015
1366497,Mack Rd Loop 52,6490 Mack Rd,,Sacramento,CA,95823,4618,SACRAMENTO,Convenience Store,38.473846,-121.42762,,,-13517260.826639121,4646582.323213925
1366594,Midtown Market,2828 Q St,,Sacramento,CA,95816,6945,SACRAMENTO,Convenience Store,38.565567,-121.47169,,,-13522166.67659838,4659632.445628117
1367616,Dulceria Socami Llc,7323 Home Leisure Plz,Ste 4,Sacramento,CA,95823,2636,SACRAMENTO,Convenience Store,38.491741,-121.43987,,,-13518624.490401339,4649127.130130856
1368331,Dulceria Socami Llc,2330 Northgate Blvd,Ste 130,Sacramento,CA,95833,2584,SACRAMENTO,Grocery Store,38.609062,-121.47475,,,-13522507.31424021,4665826.763229829
1370125,7 Eleven 2365-24604c 24604C,9210 Kiefer Blvd,,Sacramento,CA,95826,5157,SACRAMENTO,Convenience Store,38.546921,-121.35831,,,-13509545.272732241,4656978.133576216
1373479,7 Eleven 39572C,1300 Fulton Ave,,Sacramento,CA,95825,3604,SACRAMENTO,Convenience Store,38.589012,-121.40109,,,-13514307.520548375,4662970.886833696
1374221,Tony's Market,4011 W Nichols Ave,,Sacramento,CA,95820,2864,SACRAMENTO,Convenience Store,38.538097,-121.45931,,,-13520788.54130236,4655722.251575629
1374392,Chevron,4000 S Land Park Dr,,Sacramento,CA,95822,1124,SACRAMENTO,Convenience Store,38.537506,-121.50415,,,-13525780.107269531,4655638.142590485
1375434,Watan Halal Market,6808 Fruitridge Rd,,Sacramento,CA,95820,5932,SACRAMENTO,Grocery Store,38.524857,-121.42375,,,-13516830.020209752,4653838.1482350305
1378413,La Delicia,2690 Northgate Blvd,,Sacramento,CA,95833,2227,SACRAMENTO,Grocery Store,38.613701,-121.47522,,,-13522559.634400882,4666487.645509816
1379112,Stop N Save,4709 Florin Rd,Ste 2B,Sacramento,CA,95823,2534,SACRAMENTO,Convenience Store,38.496548,-121.45058,,,-13519816.722147735,4649810.830260966
1385183,Liquor King,5620 Franklin Blvd,,Sacramento,CA,95824,1110,SACRAMENTO,Convenience Store,38.524445,-121.47211,,,-13522213.430784514,4653779.524599051
1385303,Mi Tierra Mercado Y Carniceria,8484 Florin Rd,Ste 70,Sacramento,CA,95828,2525,SACRAMENTO,Grocery Store,38.495403,-121.39123,,,-13513209.910369152,4649647.972648173
1387161,Belal Market,2633 El Camino Ave,,Sacramento,CA,95821,5901,SACRAMENTO,Grocery Store,38.610962,-121.39989,,,-13514173.937159425,4666097.436297925
1389544,Quik Stop Market  9135,5764 Antelope Rd,,Sacramento,CA,95842,3909,SACRAMENTO,Convenience Store,38.704948,-121.32674,,,-13506030.916407896,4679495.5967720905
1389733,Carniceria Y Panaderia Del Valle,7137 Walerga Rd,Ste 1,Sacramento,CA,95842,4620,SACRAMENTO,Grocery Store,38.695923,-121.36401,,,-13510179.79382976,4678208.275679467
1389940,7-Eleven Store 41228H,8344 Power Inn Rd,,Sacramento,CA,95624,3456,SACRAMENTO,Convenience Store,38.454674,-121.40572,,,-13514822.929790748,4643856.617800996
1390344,Nick's Market 1,1700 V St,,Sacramento,CA,95818,1613,SACRAMENTO,Convenience Store,38.564316,-121.48942,,,-13524140.371170145,4659454.340609048
1392228,Truxel Shell- Tooley Oil Co. 55,3721 Truxel Rd,,Sacramento,CA,95834,3605,SACRAMENTO,Convenience Store,38.637272,-121.5048,,,-13525852.464938546,4669846.283176121
1392707,7 Eleven 39155b 39155B,5550 S Watt Ave,,Sacramento,CA,95826,6405,SACRAMENTO,Convenience Store,38.525589,-121.37091,,,-13510947.898316234,4653942.305620017
1393071,Natomas Food And Liqour,4000 E Commerce Way,Ste 100,Sacramento,CA,95834,9703,SACRAMENTO,Convenience Store,38.642258,-121.5191,,,-13527444.33365689,4670556.881065106
1393143,7 Eleven 38424a 38424A,802 J St,,Sacramento,CA,95814,2503,SACRAMENTO,Convenience Store,38.580795,-121.49599,,,-13524871.740224658,4661800.706441772
1394319,Fiji Mart,3280 Northgate Blvd,,Sacramento,CA,95833,1319,SACRAMENTO,Grocery Store,38.626587,-121.47474,,,-13522506.201045299,4668323.638061191
1396169,Four Seasons Market,5111 College Oak Dr,Ste A,Sacramento,CA,95841,4634,SACRAMENTO,Grocery Store,38.659817,-121.35119,,,-13508752.677957792,4673059.759412632
1396405,Liquor Video Center,3315 Northgate Blvd,Ste 12,Sacramento,CA,95834,1638,SACRAMENTO,Convenience Store,38.628395,-121.47688,,,-13522744.4247556,4668581.267629687
1397181,DS&D Petroleum,2701 Orchard Ln,,Sacramento,CA,95833,9751,SACRAMENTO,Convenience Store,38.613518,-121.53085,,,-13528752.33767371,4666461.574112275
1398469,B Brothers Mini Mart,4847 Amber Ln,,Sacramento,CA,95841,4603,SACRAMENTO,Convenience Store,38.658005,-121.35089,,,-13508719.282110555,4672801.446636002
1399457,Speed Bird #1 1,4901 47th Ave,,Sacramento,CA,95824,    ,SACRAMENTO,Convenience Store,38.510731,-121.44853,,,-13519588.517191611,4651828.3458143845
1400422,Reyes Meat Market,9531 Folsom Blvd,,Sacramento,CA,95827,1201,SACRAMENTO,Convenience Store,38.570778,-121.34118,,,-13507638.36985495,4660374.369677952
1402379,RALEY'S 415,4690 Freeport Blvd,,Sacramento,CA,95822,2068,SACRAMENTO,Supermarket,38.533401,-121.49648,,,-13524926.286775146,4655053.952886872
1402629,Kargill Arco Florin,8121 Florin Rd,,Sacramento,CA,95828,2408,SACRAMENTO,Convenience Store,38.496456,-121.40841,,,-13515122.379220983,4649797.74466282
1402633,Kargill Arco Elder Creek,8024 Elder Creek Rd,,Sacramento,CA,95824,4430,SACRAMENTO,Convenience Store,38.510082,-121.40958,,,-13515252.62302521,4651736.01763041
1403523,Arco Ampm 82538,3800 47th Ave,,Sacramento,CA,95824,3629,SACRAMENTO,Convenience Store,38.509918,-121.4641,,,-13521321.76166326,4651712.686757238
1403576,DOLLARTREE 8464,8368 Elk Grove Florin Rd,,Sacramento,CA,95829,9228,SACRAMENTO,Other,38.453369,-121.37185,,,-13511052.53863758,4643671.110775097
1403907,King International Mart,1537 Fulton Ave,,Sacramento,CA,95825,5110,SACRAMENTO,Supermarket,38.593567,-121.40196,,,-13514404.368505366,4663619.620647457
1404628,Shinwari Market & Restaurant,3323 Watt Ave,,Sacramento,CA,95821,3609,SACRAMENTO,Grocery Store,38.626778,-121.38385,,,-13512388.372527098,4668350.85415231
1405059,Costco Wholesale 893,3360 El Camino Ave,,Sacramento,CA,95821,6308,SACRAMENTO,Super Store,38.607697,-121.38602,,,-13512629.93582212,4665632.310423727
1405731,Eshan Market,3648 N Freeway Blvd,Ste 230,Sacramento,CA,95834,2924,SACRAMENTO,Grocery Store,38.638737,-121.49796,,,-13525091.03962152,4670055.067840474
1405881,El Camino Market,1010 El Camino Ave,Ste AB,Sacramento,CA,95815,2594,SACRAMENTO,Convenience Store,38.610611,-121.4433,,,-13519006.31625476,4666047.4324703
1406409,Dollar Tree 8551,1420 Meadowview Rd,,Sacramento,CA,95832,1008,SACRAMENTO,Other,38.480911,-121.5043,,,-13525796.80519315,4647586.945183395
1406628,Dollar Tree 8522,5020 Madison Ave,,Sacramento,CA,95841,2605,SACRAMENTO,Other,38.660599,-121.3485,,,-13508453.228527559,4673171.240786501
1407961,Papa Murphy's Take And Bake Pizza CA143,7832 Gerber Rd,,Sacramento,CA,95828,4302,SACRAMENTO,Specialty Store,38.481167,-121.41252,,,-13515579.902328143,4647623.349469895
1407967,Aery's Market,4710 Auburn Blvd,,Sacramento,CA,95841,3602,SACRAMENTO,Convenience Store,38.653423,-121.35431,,,-13509099.994769067,4672148.280899061
1410283,Saeed Oil Co,2390 Florin Rd,,Sacramento,CA,95822,4403,SACRAMENTO,Convenience Store,38.495461,-121.48312,,,-13523439.058378147,4649656.222141867
1410833,Arco AM PM 7099,4420 E Mack Road,,Sacramento,CA,95823,    ,SACRAMENTO,Convenience Store,38.47393,-121.45172,,,-13519943.626367237,4646594.267185568
1411625,H&S Energy Products LLC 2044,5597 Stockton Blvd,,Sacramento,CA,95820,5414,SACRAMENTO,Convenience Store,38.525284,-121.44233,,,-13518898.336348692,4653898.906580857
1411640,H&S Energy Products LLC 2050,3481 Fair Oaks Blvd,,Sacramento,CA,95864,5705,SACRAMENTO,Convenience Store,38.57444,-121.38345,,,-13512343.844730783,4660895.784691849
1411708,Raj Mini Mart,1441 Meadowview Rd,Ste 106,Sacramento,CA,95832,1000,SACRAMENTO,Convenience Store,38.481647,-121.5034,,,-13525696.617651436,4647691.607855573
1412728,Food4Less 16,3547 Bradshaw Rd,,Sacramento,CA,95827,3304,SACRAMENTO,Supermarket,38.558285,-121.33446,,,-13506890.30287682,4658595.749918828
1413769,Good Taste Market,7117 Walerga Rd,Ste 5,Sacramento,CA,95842,4619,SACRAMENTO,Grocery Store,38.696697,-121.36399,,,-13510177.567439947,4678318.672250224
1415472,Papa Murphy's Ca160 CA160,4340 Arden Way,Ste 1,Sacramento,CA,95864,3100,SACRAMENTO,Specialty Store,38.595268,-121.36266,,,-13510029.512517191,4663861.891623894
1416110,Xieng Khouang Market,4506 Brookfield Dr,,Sacramento,CA,95823,3702,SACRAMENTO,Grocery Store,38.482216,-121.4521,,,-13519985.927773742,4647772.523072401
1417462,Diamond Gas & Mart 3,8329 Folsom Blvd,,Sacramento,CA,95826,3538,SACRAMENTO,Convenience Store,38.547421,-121.39854,,,-13514023.655846855,4657049.301040788
1422737,Mediterranean Sea Market & Deli 1,5112 Madison Ave,,Sacramento,CA,95841,3000,SACRAMENTO,Grocery Store,38.66032,-121.34557,,,-13508127.062419534,4673131.466601676
1423183,Burger King # 5085,7225 Greenhaven Dr,,Sacramento,CA,95831,    ,SACRAMENTO,Restaurant Meals Program,38.494667,-121.52336,,,-13527918.55468767,4649543.289994693
1424070,Hi & Buy,5625 Mack Rd,,Sacramento,CA,95823,4669,SACRAMENTO,Convenience Store,38.474941,-121.43665,,,-13518266.041640986,4646738.022507352
1424262,Bakhtar International Market N/A,4306 Marconi Ave,,Sacramento,CA,95821,4310,SACRAMENTO,Grocery Store,38.617191,-121.36407,,,-13510186.472999208,4666984.866858898
1426067,Winn Park Farmers' Market,1616 28th St,,Sacramento,CA,95816,6939,SACRAMENTO,Farmers and Markets,38.566818,-121.47284,,California Department of Food and Agriculture,-13522294.694012795,4659810.553747744
1428314,Hi & Buy 3,4143 23rd Ave,,Sacramento,CA,95820,5099,SACRAMENTO,Convenience Store,38.532551,-121.45802,,,-13520644.939159239,4654932.992071298
1429367,Hi & Buy 2,5960 Freeport Blvd,,Sacramento,CA,95822,3507,SACRAMENTO,Convenience Store,38.517342,-121.50008,,,-13525327.036942003,4652768.888802936
1430288,Afrikico International Market,7230 S Land Park Dr,Ste 101,Sacramento,CA,95831,3657,SACRAMENTO,Grocery Store,38.494522,-121.51267,,,-13526728.54933109,4649522.666500202
1430295,Power Mart,8111 Scottsdale Dr,Ste A,Sacramento,CA,95828,4467,SACRAMENTO,Convenience Store,38.488152,-121.40816,,,-13515094.549348285,4648616.696013546
1431811,Bros Liquor,3510 Auburn Blvd,Ste 7,Sacramento,CA,95821,2067,SACRAMENTO,Convenience Store,38.636765,-121.3815,,,-13512126.771723736,4669774.028999544
1432194,Root 64 Sacramento,4971 64th St,,Sacramento,CA,95820,5851,SACRAMENTO,Farmers and Markets,38.530266,-121.42867,GusNIP,California Department of Food and Agriculture,-13517377.712104453,4654607.828021948
1433718,Burger King 15906,8338 Power Inc Road,,Sacramento,CA,95828,    ,SACRAMENTO,Restaurant Meals Program,38.454933,-121.40633,,,-13514890.834680133,4643893.435303273
1435578,Madison Mixx Mart 6,5038 Madison Ave,,Sacramento,CA,95841,2605,SACRAMENTO,Convenience Store,38.660488,-121.34779,,,-13508374.191689095,4673155.416629893
1436098,Dollar East West,5659 Mack Rd,,Sacramento,CA,95823,4670,SACRAMENTO,Grocery Store,38.474392,-121.43544,,,-13518131.345057126,4646659.959278344
1436890,Mini Mart Smoke Shop,5222 Hillsdale Blvd,Ste 6,Sacramento,CA,95842,3500,SACRAMENTO,Convenience Store,38.66209,-121.3638,,,-13510156.416736694,4673383.800078323
1437587,Carniceria Mi Mercadito,7900 Florin Rd,Ste 15,Sacramento,CA,95828,3145,SACRAMENTO,Grocery Store,38.495224,-121.40996,,,-13515294.924431711,4649622.513045711
1437907,Fremont Market,2330 N St,,Sacramento,CA,95816,5716,SACRAMENTO,Convenience Store,38.570656,-121.47678,,,-13522733.292806521,4660356.999127293
1438710,7 Eleven 37620a 37620A,2401 Fruitridge Rd,,Sacramento,CA,95822,2243,SACRAMENTO,Convenience Store,38.525112,-121.4828,,,-13523403.436141094,4653874.432449716
1439268,Frosty Queen,7800 Stockton Blvd,,Sacramento,CA,95823,    ,SACRAMENTO,Restaurant Meals Program,38.474014,-121.41928,,,-13516332.422085907,4646606.211171125
1443952,Mgm Tobacco & Mini Mart,7206 Lindale Dr,,Sacramento,CA,95828,3224,SACRAMENTO,Convenience Store,38.495602,-121.42725,,,-13517219.638427528,4649676.276973202
1446183,Target Store T3384,1707 J St,,Sacramento,CA,95811,3007,SACRAMENTO,Super Store,38.577969,-121.48336,,,-13523465.77505594,4661398.2876085425
1447372,Khan Hing Tong,6035 Stockton Blvd,,Sacramento,CA,95824,1534,SACRAMENTO,Grocery Store,38.516472,-121.43808,,,-13518425.228512818,4652645.109491668
1447682,Prime Gas Inc,7282 Franklin Blvd,,Sacramento,CA,95823,2428,SACRAMENTO,Convenience Store,38.493279,-121.45826,,,-13520671.655837027,4649345.875074565
1447703,R & G Smoke Shop 1,4760 Florin Rd,Ste F,Sacramento,CA,95823,2505,SACRAMENTO,Convenience Store,38.495281,-121.4499,,,-13519741.024893997,4649630.620286558
1447782,Table Farm,5265 H St,,Sacramento,CA,95819,3598,SACRAMENTO,Farmers and Markets,38.568855,-121.43834,,,-13518454.171580426,4660100.573364248
1448661,Express Stop Market,2365 North Ave,,Sacramento,CA,95838,3135,SACRAMENTO,Convenience Store,38.640171,-121.41116,,,-13515428.507820662,4670259.438668889
1448913,Fruitridge Quick Mart,5610 44th St,,Sacramento,CA,95824,1431,SACRAMENTO,Convenience Store,38.52438,-121.45576,,,-13520393.357110044,4653770.2757550925
1449036,Jack in the Box 481,3500 Marconi Ave.,,Sacramento,CA,95821,    ,SACRAMENTO,Restaurant Meals Program,38.617462,-121.38241,,,-13512228.072460357,4667023.477322541
1449045,Jack in the Box 566,5420 Stockton Blvd.,,Sacramento,CA,95820,    ,SACRAMENTO,Restaurant Meals Program,38.525658,-121.44353,,,-13519031.91973764,4653952.123788817
1449429,Jack in the Box 4305,4601 Broadway,,Sacramento,CA,95820,    ,SACRAMENTO,Restaurant Meals Program,38.547146,-121.45357,,,-13520149.567425206,4657010.158874038
1455643,Majesty Llc,2590 Alta Arden Expy,,Sacramento,CA,95825,1902,SACRAMENTO,Grocery Store,38.599567,-121.40245,,,-13514458.915055854,4664474.217583123
1456111,Rma Gerber Petroleum Inc,8501 Gerber Rd,,Sacramento,CA,95828,4705,SACRAMENTO,Convenience Store,38.482357,-121.38962,,,-13513030.685988978,4647792.574217859
1456882,Kabul City Market And Restaurant,2580 Alta Arden Expy,,Sacramento,CA,95825,1902,SACRAMENTO,Grocery Store,38.59911,-121.40301,,,-13514521.2539707,4664409.123269891
1457543,Village Pizzeria & Grill,3708 Auburn Blvd,,Sacramento,CA,95821,2101,SACRAMENTO,Restaurant Meals Program,38.638786,-121.37788,,,-13511723.795167064,4670062.051155562
1460216,Bains Marinated Meat Shop,8851 Calvine Rd,Ste A,Sacramento,CA,95828,9341,SACRAMENTO,Specialty Store,38.453342,-121.3743,,,-13511325.271390026,4643667.272734129
1460983,Barakat Halal Mart,5334 Auburn Blvd,,Sacramento,CA,95841,2806,SACRAMENTO,Grocery Store,38.666458,-121.33968,,,-13507471.39061876,4674006.534464131
1461170,Capitol Mall Cfm,6th Capitol Mall,,Sacramento,CA,95814,    ,SACRAMENTO,Farmers and Markets,38.580078,-121.50687,,California Department of Food and Agriculture,-13526082.89628449,4661698.605047742
1465368,Papa Murphy's CA164,5734 Folsom Blvd,,Sacramento,CA,95819,4608,SACRAMENTO,Specialty Store,38.557575,-121.43667,,,-13518268.268030802,4658494.676994869
1465584,Fiji Sweets And Snacks,6741 Stockton Blvd,,Sacramento,CA,95823,1629,SACRAMENTO,Grocery Store,38.50378,-121.43215,,,-13517765.103932416,4650839.524358465
1465816,Takhar South Sac Inc. 83939,5625 Florin Rd,,Sacramento,CA,95823,2204,SACRAMENTO,Convenience Store,38.496246,-121.43967,,,-13518602.226503182,4649767.87542531
1468331,A&m Food And Liquor,1838 Auburn Blvd,,Sacramento,CA,95815,1908,SACRAMENTO,Convenience Store,38.621132,-121.42351,,,-13516803.30353196,4667546.371398401
1468369,Kwik Shop Market,6230 Fruitridge Rd,,Sacramento,CA,95820,5857,SACRAMENTO,Convenience Store,38.524666,-121.43158,,,-13517701.651822662,4653810.97073099
1469037,Umrah Market,6023 Florin Rd,,Sacramento,CA,95823,2494,SACRAMENTO,Grocery Store,38.497089,-121.43478,,,-13518057.8741932,4649887.779605534
1469091,21st Amendment Liquor ,1555 Fulton Ave,,Sacramento,CA,95825,5110,SACRAMENTO,Convenience Store,38.594585,-121.40212,,,-13514422.179623893,4663764.612229327
1469300,Wah Tsun Chinese Herbs,6930 65th St,Ste 133,Sacramento,CA,95823,2342,SACRAMENTO,Other,38.500561,-121.43454,,,-13518031.15751541,4650381.6346262945
1471865,Mardan Inc Dba Northgate Chevron 5799,2449 Northgate Blvd,,Sacramento,CA,95833,2502,SACRAMENTO,Convenience Store,38.610966,-121.47591,,,-13522636.44484953,4666098.006143522
1472363,New Arcade Market,3173 Marysville Blvd,,Sacramento,CA,95815,1408,SACRAMENTO,Grocery Store,38.624969,-121.43372,,,-13517939.87553296,4668093.08790429
1472393,Powerfuel Food Mart,4305 Fruitridge Rd,,Sacramento,CA,95820,5101,SACRAMENTO,Convenience Store,38.525234,-121.45587,,,-13520405.602254033,4653891.792001819
1474354,Sunrise Halal Market,6964 65th St,,Sacramento,CA,95823,2316,SACRAMENTO,Grocery Store,38.500622,-121.43687,,,-13518290.531928958,4650390.3114393875
1478435,Jin Yang Market,8765 Center Pkwy,Ste D100,Sacramento,CA,95823,7915,SACRAMENTO,Convenience Store,38.438412,-121.4194,,,-13516345.7804248,4641545.198149933
1478797,Jiffy Mart,6330 Martin Luther King Jr Blvd,,Sacramento,CA,95824,3652,SACRAMENTO,Convenience Store,38.511078,-121.46484,,,-13521404.138086447,4651877.711147859
1479420,Southside Market,601 T St,,Sacramento,CA,95811,7026,SACRAMENTO,Convenience Store,38.570877,-121.50326,,,-13525681.032922724,4660388.465474346
1480381,Four B One Inc,4400 Raley Blvd,,Sacramento,CA,95838,2420,SACRAMENTO,Convenience Store,38.647655,-121.42874,,,-13517385.504468812,4671326.109833379
1480813,Northgate Liquor & Food,3016 Northgate Blvd,,Sacramento,CA,95833,1322,SACRAMENTO,Convenience Store,38.620144,-121.47514,,,-13522550.728841618,4667405.600552026
1482229,Big Upps Jamaican Caribbean Grocery Store,4301 Truxel Rd,Ste D6,Sacramento,CA,95834,3752,SACRAMENTO,Convenience Store,38.649914,-121.51073,,,-13526512.589518951,4671648.099943334
1485104,Afghan Super Market,2529 Fulton Ave,,Sacramento,CA,95821,5907,SACRAMENTO,Other,38.61187,-121.40155,,,-13514358.72751414,4666226.792063916
1485607,The Mart,4250 Fruitridge Rd,,Sacramento,CA,95820,5047,SACRAMENTO,Convenience Store,38.524517,-121.45769,,,-13520608.203727275,4653789.76948211
1488002,7 Eleven 41251a 41251A,8498 Florin Rd,,Sacramento,CA,95828,2514,SACRAMENTO,Convenience Store,38.495758,-121.39098,,,-13513182.080496458,4649698.465342974
1488749,Food Shop ,3211 Riverside Blvd,,Sacramento,CA,95818,4049,SACRAMENTO,Convenience Store,38.549801,-121.50571,,,-13525953.765675168,4657388.0649561705
1490119,Arco Ampm 7062,6240 Freeport Boulevard,,Sacramento,CA,95822,    ,SACRAMENTO,Convenience Store,38.513752,-121.50143,,,-13525477.318254573,4652258.130949176
1490373,RSM Broadway 28,4401 Broadway,,Sacramento,CA,95817,3447,SACRAMENTO,Supermarket,38.547272,-121.45529,,,-13520341.036949372,4657028.093084586
1491887,Subway,6500 Folsom Blvd,,Sacramento,CA,95819,    ,SACRAMENTO,Restaurant Meals Program,38.553963,-121.42744,,,-13517240.789130779,4657980.501746067
1492350,Red Carpet Liquor & Lotto,1508 W El Camino Ave,,Sacramento,CA,95833,1921,SACRAMENTO,Convenience Store,38.611908,-121.4954,,,-13524806.06172509,4666232.205666907
1494295,JJs Hawaiian BBQ,5133 Madison Ave  Suite 2,,Sacramento,CA,95841,    ,SACRAMENTO,Restaurant Meals Program,38.661293,-121.34493,,,-13508055.817945426,4673270.17796134
1494379,Flip n Shake,4708 Auburn Blvd,,Sacramento,CA,95841,    ,SACRAMENTO,Restaurant Meals Program,38.653225,-121.35461,,,-13509133.390616303,4672120.056870034
1494677,Buddy's Supermarket,5984 14th Ave,,Sacramento,CA,95820,3208,SACRAMENTO,Convenience Store,38.539246,-121.43584,,,-13518175.872853441,4655885.775082894
1495965,Sacramento Poultry,519 Broadway,,Sacramento,CA,95818,2001,SACRAMENTO,Specialty Store,38.56567,-121.50623,,,-13526011.651810382,4659647.109888538
1497154,AFG Market Restaurant,2213 Del Paso Blvd,Suite B,Sacramento,CA,95815,    ,SACRAMENTO,Restaurant Meals Program,38.610767,-121.45004,,,-13519756.609622708,4666069.656363488
1497260,Al-Said Pizza N Kabob,6019 Stockton Blvd,Ste F,Sacramento,CA,95824,1510,SACRAMENTO,Restaurant Meals Program,38.517387,-121.43815,,,-13518433.020877173,4652775.291221795
1497848,World Wines And Liquor,5301 Fruitridge Rd,,Sacramento,CA,95820,5425,SACRAMENTO,Convenience Store,38.525185,-121.44433,,,-13519120.975330276,4653884.819719161
1500374,Halal Mart,5675 Hillsdale Blvd,Ste 5,Sacramento,CA,95842,4034,SACRAMENTO,Grocery Store,38.67128,-121.35983,,,-13509714.478358245,4674694.03856617
1503875,Dollar Tree 9134,354 Florin Rd,,Sacramento,CA,95831,1407,SACRAMENTO,Other,38.508385,-121.54291,,,-13530094.850732679,4651494.602567493
1503966,Fast Stop Foos Store,5601 Wilkinson St,,Sacramento,CA,95824,2233,SACRAMENTO,Convenience Store,38.524902,-121.41415,,,-13515761.353098135,4653844.551322397
1503991,P & J Grocery And Liquor Llc,4800 47th Ave,,Sacramento,CA,95824,3947,SACRAMENTO,Convenience Store,38.510147,-121.44994,,,-13519745.477673627,4651745.264637533
1504396,Sk India Mart,6618 Florin Rd,Ste B,Sacramento,CA,95828,2888,SACRAMENTO,Other,38.495457,-121.42566,,,-13517042.640437165,4649655.653211053
1504442,Quik Stop Market #551096,3296 Marysville Blvd,,Sacramento,CA,95815,1411,SACRAMENTO,Convenience Store,38.628529,-121.43156,,,-13517699.425432848,4668600.362115135
1505168,Presto Food & Liquor,6625 Valley HI Dr,,Sacramento,CA,95823,4601,SACRAMENTO,Convenience Store,38.471443,-121.42763,,,-13517261.939834028,4646240.646203757
1505185,J Spot Kitchen,3173 Marysville Blvd,,Sacramento,CA,95815,1408,SACRAMENTO,Restaurant Meals Program,38.624969,-121.43372,,,-13517939.87553296,4668093.08790429
1506907,Gold Star Mart,930 S St,,Sacramento,CA,95811,7025,SACRAMENTO,Convenience Store,38.570251,-121.49815,,,-13525112.19032477,4660299.334805849
1507359,Fruitridgechevron,3900 Fruitridge Rd,,Sacramento,CA,95820,6405,SACRAMENTO,Convenience Store,38.52446,-121.46318,,,-13521219.347731732,4653781.658948842
1507527,Tri-foods Market,7343 Home Leisure Plz,,Sacramento,CA,95823,2600,SACRAMENTO,Grocery Store,38.491207,-121.44016,,,-13518656.773053668,4649051.182068191
1508327,McDonald's #688,5008 Auburn Blvd,,Sacramento,CA,95841,2621,SACRAMENTO,Restaurant Meals Program,38.659821,-121.34698,,,-13508284.022901552,4673060.329646744
1508340,McDonald's #25602,3412 Arden Way,,Sacramento,CA,95825,2019,SACRAMENTO,Restaurant Meals Program,38.595497,-121.38474,,,-13512487.446873905,4663894.5082020275
1508746,Royal Market,1701 T St,,Sacramento,CA,95811,7213,SACRAMENTO,Convenience Store,38.566902,-121.48839,,,-13524025.712094627,4659822.513157033
1508893,Food Mart,1266 Howe Ave,,Sacramento,CA,95825,3400,SACRAMENTO,Convenience Store,38.588638,-121.41498,,,-13515853.748275494,4662917.622702376
1508926,J St Market - Nihaal Food Corporation,2531 J St,,Sacramento,CA,95816,4814,SACRAMENTO,Grocery Store,38.574818,-121.47201,,,-13522202.298835436,4660949.607853264
1509389,Asia Market And Restaurant 1,2737 Fulton Ave,,Sacramento,CA,95821,5100,SACRAMENTO,Grocery Store,38.614902,-121.40211,,,-13514421.066428985,4666658.749610869
1509456,East West Foods,4411 47th Ave,,Sacramento,CA,95824,3835,SACRAMENTO,Supermarket,38.51059,-121.4548,,,-13520286.490398882,4651808.286769911
1509696,Papa Murphy's Take N Bake 108,4424 Freeport Blvd,Ste 1,Sacramento,CA,95822,2049,SACRAMENTO,Specialty Store,38.534752,-121.49439,,,-13524693.629039388,4655246.212371109
1510266,Grocery Outlet Of South Natomas 393,1630 W El Camino Ave,,Sacramento,CA,95833,3630,SACRAMENTO,Supermarket,38.612289,-121.49953,,,-13525265.811222065,4666286.484318552
1510827,Speedway 6176,2600 Arden Way,,Sacramento,CA,95825,1364,SACRAMENTO,Convenience Store,38.595627,-121.40115,,,-13514314.199717823,4663913.024209714
1511536,Rally's,6051 Florin Rd,,Sacramento,CA,95823,2304,SACRAMENTO,Restaurant Meals Program,38.498775,-121.43377,,,-13517945.4415075,4650127.592175465
1512547,Divine Pacific Foods,7298 Franklin Blvd,,Sacramento,CA,95823,2475,SACRAMENTO,Other,38.492516,-121.45795,,,-13520637.14679488,4649237.355380361
1514548,Better Trade Market ,4000 12th Ave,,Sacramento,CA,95817,3708,SACRAMENTO,Convenience Store,38.540993,-121.46065,,,-13520937.709420023,4656134.409824563
1516437,CVS Pharmacy CVS11047,5611 Stockton Blvd,,Sacramento,CA,95824,1611,SACRAMENTO,Other,38.524521,-121.44147,,,-13518802.601586606,4653790.33864258
1516991,K Mini Mart #921,921 K St,,Sacramento,CA,95814,3511,SACRAMENTO,Convenience Store,38.579659,-121.49432,,,-13524685.836675033,4661638.939572452
1517015,M & M Liquor and Food,8969 Folsom Blvd,,Sacramento,CA,95826,3203,SACRAMENTO,Convenience Store,38.55637,-121.36916,,,-13510753.089207346,4658323.140021539
1518381,Pizza Twist,8324 Elk Grove Florin Rd,,Sacramento,CA,95829,9546,SACRAMENTO,Restaurant Meals Program,38.455742,-121.37296,,,-13511176.103272362,4644008.437541893
1521910,Saba Live Poultry 3,8612 Younger Creek Dr,,Sacramento,CA,95828,1022,SACRAMENTO,Specialty Store,38.516357,-121.3852,,,-13512538.653839672,4652628.747970507
1523100,Norwood Chevron,4200 Norwood Ave,,Sacramento,CA,95838,2614,SACRAMENTO,Convenience Store,38.644367,-121.4563,,,-13520453.469635073,4670857.467734212
1523246,Alibaba International Foods Inc,1547 Fulton Ave,Ste A,Sacramento,CA,95825,    ,SACRAMENTO,Grocery Store,38.593983,-121.40202,,,-13514411.047674814,4663678.870397122
1523400,Arco Broadway,2100 Broadway,,Sacramento,CA,95818,2518,SACRAMENTO,Convenience Store,38.559425,-121.48545,,,-13523698.432791697,4658758.038110507
1524018,Marisol Village Farm Stand,701 Pipevine Street,,Sacramento,CA,95811,    ,SACRAMENTO,Farmers and Markets,38.572697,-121.48462,GusNIP,California Department of Food and Agriculture,-13523606.037614338,4660647.603777873
1525392,H & S Energy Products 3076,9680 Business Park Dr,,Sacramento,CA,95827,1701,SACRAMENTO,Convenience Store,38.568398,-121.33585,,,-13507045.036969021,4660035.506883188
1525413,H & S Energy Products 3075,4231 Arden Way,,Sacramento,CA,95864,3020,SACRAMENTO,Convenience Store,38.595917,-121.36497,,,-13510286.660540922,4663954.329270771
1525452,Hassan & Sons 1011,8908 Elder Creek Rd,,Sacramento,CA,95828,1807,SACRAMENTO,Convenience Store,38.510284,-121.37099,,,-13510956.803875498,4651764.754510645
1525603,Grocery Outlet Of Rosemont 366,3615 Bradshaw Rd,,Sacramento,CA,95827,    ,SACRAMENTO,Supermarket,38.556126,-121.33475,,,-13506922.585529152,4658288.405913942
1526171,Popeyes #10989,7501 W Stockton Blvd,,Sacramento,CA,95823,5444,SACRAMENTO,Restaurant Meals Program,38.455574,-121.41576,,,-13515940.577478314,4643984.555635939
1526172,Popeyes #11218,5301 Auburn Blvd,,Sacramento,CA,95841,2805,SACRAMENTO,Restaurant Meals Program,38.666321,-121.3409,,,-13507607.200397529,4673987.002153838
1526176,Popeyes #11691,3501 El Camino Ave,,Sacramento,CA,95821,6538,SACRAMENTO,Restaurant Meals Program,38.61087,-121.38261,,,-13512250.336358516,4666084.32985791
1526181,Popeyes #11921,4554 Mack Rd,,Sacramento,CA,95823,4546,SACRAMENTO,Restaurant Meals Program,38.473736,-121.4492,,,-13519663.10125044,4646566.682319723
1526327,Popeyes #13144,1500 W El Camino Ave,,Sacramento,CA,95833,1945,SACRAMENTO,Restaurant Meals Program,38.61219,-121.49456,,,-13524712.553352825,4666272.380389223
1526334,Popeyes #13684,5064 Stockton Blvd,,Sacramento,CA,95820,5408,SACRAMENTO,Restaurant Meals Program,38.529354,-121.44528,,,-13519226.72884653,4654478.049892925
1527669,Sam Market,2685 Rio Linda Blvd,,Sacramento,CA,95815,2220,SACRAMENTO,Grocery Store,38.616341,-121.44648,,,-13519360.312235482,4666863.764874947
1527762,Hamdan Butcher Shop ,3108 Arden Way,,Sacramento,CA,95825,2002,SACRAMENTO,Other,38.594669,-121.39182,,,-13513275.588868722,4663776.576263077
1528147,Express Lane Plus Inc,3991 E Commerce Way,,Sacramento,CA,95834,4009,SACRAMENTO,Convenience Store,38.641972,-121.52002,,,-13527546.74758842,4670516.119400414
1528203,Chevron Extra-Mile,1832 El Camino Ave,,Sacramento,CA,95815,    ,SACRAMENTO,Convenience Store,38.610798,-121.42389,,,-13516845.604938462,4666074.072655709
1528422,Won Won Seafood Market,5121 Freeport Blvd,,Sacramento,CA,95822,2734,SACRAMENTO,Other,38.527477,-121.4959,,,-13524861.721470486,4654210.956880432
1529601,Del Valle Supermarket,7870 Florin Rd,,Sacramento,CA,95828,3106,SACRAMENTO,Supermarket,38.495235,-121.4114,,,-13515455.224498454,4649624.077600463
1529629,Grocery Outlet South Sacramento 46,7923 E Stockton Blvd,,Sacramento,CA,95823,9606,SACRAMENTO,Supermarket,38.47015,-121.41622,,,-13515991.784444077,4646056.802237337
1529915,Zeeshan Market,3138 Northgate Blvd,,Sacramento,CA,95833,1348,SACRAMENTO,Grocery Store,38.623104,-121.47518,,,-13522555.18162125,4667827.348966994
1530306,Art's Liquor,5800 Madison Ave,Ste C,Sacramento,CA,95841,4816,SACRAMENTO,Convenience Store,38.659958,-121.32921,,,-13506305.875550156,4673079.860184211
1530573,Punjab International,2338 Florin Rd,,Sacramento,CA,95822,4403,SACRAMENTO,Convenience Store,38.495037,-121.48471,,,-13523616.05636851,4649595.915651488
1531148,Metro Food And Liquor,5380 H St,,Sacramento,CA,95819,3545,SACRAMENTO,Convenience Store,38.567719,-121.43623,,,-13518219.287454853,4659938.833379021
1531194,Ethio Foods Llc,2251 Florin Rd,Ste 153,Sacramento,CA,95822,4653,SACRAMENTO,Grocery Store,38.497074,-121.48435,,,-13523575.981351824,4649885.646066933
1532587,65th Stockton Shell,6919 Stockton Blvd,,Sacramento,CA,95823,2319,SACRAMENTO,Convenience Store,38.500389,-121.43066,,,-13517599.237891132,4650357.168897804
1532653,Carniceria Mis Amigos Inc,7260 Franklin Blvd,,Sacramento,CA,95823,2413,SACRAMENTO,Grocery Store,38.493687,-121.46049,,,-13520919.898301497,4649403.904425871
1532804,Cal Expo Chevron 5945,2000 Arden Way,,Sacramento,CA,95825,2202,SACRAMENTO,Convenience Store,38.595802,-121.4195,,,-13516356.912373882,4663937.9496576255
1533823,California State University Sacramento (Sac State,6000 J St,,Sacramento,CA,95819,2605,SACRAMENTO,Convenience Store,38.56329,-121.42635,,,-13517119.450885814,4659308.271180879
1535119,Bibi Pastry & Cafe Inc.,2713 El Camino Ave,,Sacramento,CA,95821,5903,SACRAMENTO,Specialty Store,38.611313,-121.39885,,,-13514058.164888998,4666147.440370183
1536159,Subway,2029 J St,,Sacramento,CA,95811,3119,SACRAMENTO,Restaurant Meals Program,38.576576,-121.47888,,,-13522967.063737184,4661199.931992194
1536600,Short Stop Food And Liquor,9545 Folsom Blvd,Ste 4,Sacramento,CA,95827,1209,SACRAMENTO,Convenience Store,38.571045,-121.34043,,,-13507554.880236857,4660412.385658124
1537270,South Watt Shell 24,7149 S Watt Ave,,Sacramento,CA,95829,1154,SACRAMENTO,Convenience Store,38.496574,-121.37167,,,-13511032.501129238,4649814.528367819
1537370,Subway 49874,1500 W El Camino Ave,Ste 3,Sacramento,CA,95833,1945,SACRAMENTO,Restaurant Meals Program,38.61219,-121.49456,,,-13524712.553352825,4666272.380389223
1540679,Louisiana Heaven,6623 Valley HI Dr,,Sacramento,CA,95823,7078,SACRAMENTO,Restaurant Meals Program,38.471272,-121.42763,,,-13517261.939834028,4646216.332543396
1542226,Subway 3854,3661 Truxel Rd,Ste 2,Sacramento,CA,95834,3617,SACRAMENTO,Restaurant Meals Program,38.63586,-121.50546,,,-13525925.93580247,4669645.055852108
1542232,Subway 24677,4680 Natomas Blvd,Ste 140,Sacramento,CA,95835,2222,SACRAMENTO,Restaurant Meals Program,38.658371,-121.51115,,,-13526559.343705082,4672853.62186883
1542279,El Pollo Loco,7820 Folsom Blvd,,Sacramento,CA,95826,2610,SACRAMENTO,Restaurant Meals Program,38.549896,-121.41293,,,-13515625.54331937,4657401.587277949
1542541,Subway 33806,4160 Northgate Blvd,Ste 3,Sacramento,CA,95834,1247,SACRAMENTO,Restaurant Meals Program,38.644955,-121.47502,,,-13522537.370502723,4670941.27441388
1542570,El Pollo Loco #3872,1212 Howe Ave,,Sacramento,CA,95825,3400,SACRAMENTO,Restaurant Meals Program,38.587551,-121.41489,,,-13515843.729521323,4662762.816494588
1542577,El Pollo Loco #3874,3312 Bradshaw Rd,,Sacramento,CA,95827,2602,SACRAMENTO,Restaurant Meals Program,38.563297,-121.33669,,,-13507138.545341289,4659309.26774886
1543723,Subway 26411,3645 Northgate Blvd,Ste B,Sacramento,CA,95834,1641,SACRAMENTO,Restaurant Meals Program,38.631905,-121.47626,,,-13522675.406671306,4669081.440927225
1544119,The Sandwich Spot - Rosemont,9408 Kiefer Blvd,Ste 2,Sacramento,CA,95826,5563,SACRAMENTO,Restaurant Meals Program,38.54668,-121.34853,,,-13508456.568112282,4656943.831035028
1544125,The Sandwich Spot - Gateway,2606 Gateway Oaks Dr,,Sacramento,CA,95833,3937,SACRAMENTO,Restaurant Meals Program,38.613049,-121.51574,,,-13527070.300167825,4666394.7575555425
1544374,Apna Punjab Market NO,6640 Valley Hi Dr,Ste A,Sacramento,CA,95823,7077,SACRAMENTO,Grocery Store,38.472076,-121.42624,,,-13517107.205741828,4646330.649904438
1544737,Pizza Twist,1441 Howe Ave,Ste 200,Sacramento,CA,95825,3245,SACRAMENTO,Restaurant Meals Program,38.59227,-121.41577,,,-13515941.69067322,4663434.894665499
1546141,Prime Time Nutrition 591,2400 Northgate Blvd,,Sacramento,CA,95833,2501,SACRAMENTO,Grocery Store,38.61055,-121.47523,,,-13522560.747595789,4666038.742371364
1547912,7 Eleven 39425c 39425C,9199 Folsom Blvd,,Sacramento,CA,95826,2404,SACRAMENTO,Convenience Store,38.56163,-121.359,,,-13509622.083180888,4659071.944943384
1548678,Sacramento Grocery Outlet 85,3431 Watt Ave,,Sacramento,CA,95821,3612,SACRAMENTO,Supermarket,38.627785,-121.38387,,,-13512390.598916914,4668494.345423027
1548701,All Nation Market,2431 Northgate Blvd,,Sacramento,CA,95833,2502,SACRAMENTO,Convenience Store,38.6106,-121.47594,,,-13522639.784434253,4666045.865402732
1548761,Shop N Go Whole Sale Llc,7234 Franklin Blvd,,Sacramento,CA,95823,2413,SACRAMENTO,Convenience Store,38.49427,-121.46082,,,-13520956.633733459,4649486.82438784
1549373,Chicago's Pizza With A Twist,7431 W Stockton Blvd,Ste 170,Sacramento,CA,95823,5434,SACRAMENTO,Restaurant Meals Program,38.456459,-121.4146,,,-13515811.446868993,4644110.36272996
1549895,Arham Halal Market 1,7810 Stockton Blvd,Ste 120,Sacramento,CA,95823,4338,SACRAMENTO,Grocery Store,38.473812,-121.42031,,,-13516447.081161425,4646577.48875317
1550192,Mckinley Park Farmers Market,601 Alhambra Blvd,,Sacramento,CA,95816,3805,SACRAMENTO,Farmers and Markets,38.577133,-121.46267,,,-13521162.574791426,4661279.245298282
1550341,International Rescue Committee New Roots Farmstand #3,2201 Cottage Way,,Sacramento,CA,95825,1022,SACRAMENTO,Farmers and Markets,38.605423,-121.41303,,,-13515636.675268447,4665308.373084129
1550661,Tolo Afghan Market & Restaurant,2654 Marconi Ave,Ste 112,Sacramento,CA,95821,5109,SACRAMENTO,Convenience Store,38.617352,-121.40016,,,-13514203.993421938,4667007.805161038
1550681,Ben Thanh Market,6821 Stockton Blvd,Ste 130,Sacramento,CA,95823,2483,SACRAMENTO,Other,38.502682,-121.43012,,,-13517539.125366105,4650683.335999134
1551841,Rebel 2578,3200 Arena Blvd,,Sacramento,CA,95834,1098,SACRAMENTO,Convenience Store,38.642593,-121.53249,,,-13528934.901638612,4670604.626578521
1552286,Afghan International Market And Restaurant,3112 Arden Way,,Sacramento,CA,95825,2002,SACRAMENTO,Grocery Store,38.594521,-121.39182,,,-13513275.588868722,4663755.496784436
1552466,Osprey 1 Liquor And Food,2538 Cottage Way,,Sacramento,CA,95825,1916,SACRAMENTO,Convenience Store,38.603004,-121.40255,,,-13514470.047004936,4664963.791377272
1554117,East Sacramento Grocery Outlet #408,6720 Folsom Blvd,,Sacramento,CA,95819,4661,SACRAMENTO,Supermarket,38.552902,-121.42545,,,-13517019.2633441,4657829.471234315
1554190,7 Eleven 24276f,3448 Watt Ave,,Sacramento,CA,95821,3613,SACRAMENTO,Convenience Store,38.628395,-121.38236,,,-13512222.506485818,4668581.267629687
1554505,Carl's Jr. 8734,9631 Micron Ave,,Sacramento,CA,95827,2605,SACRAMENTO,Restaurant Meals Program,38.563938,-121.33805,,,-13507289.93984877,4659400.5253139455
1555624,J Spot Kitchen Feat Enos Tacos,2828 Q St,Suite B,Sacramento,CA,95816,6971,SACRAMENTO,Restaurant Meals Program,38.565571,-121.47169,,,-13522166.67659838,4659633.015113567
1555631,Int'l Green Market & Cafe Llc.,1826 Fulton Ave,,Sacramento,CA,95825,1925,SACRAMENTO,Grocery Store,38.599266,-121.40113,,,-13514311.973328007,4664431.343601557
1558018,Subway #52455,1978 Stockton Blvd,,Sacramento,CA,95816,6638,SACRAMENTO,Restaurant Meals Program,38.559841,-121.46284,,,-13521181.499104861,4658817.259705666
1558101,Afghan Halal Market,8785 Center Pkwy,Ste B350,Sacramento,CA,95823,7925,SACRAMENTO,Other,38.439232,-121.41904,,,-13516305.705408115,4641661.737404776
1558311,Falafel Corner,3539 Bradshaw Rd,3B,Sacramento,CA,95827,    ,SACRAMENTO,Restaurant Meals Program,38.558315,-121.33475,,,-13506922.585529152,4658600.020627739
1558844,Noor Market,2703 El Camino Ave,,Sacramento,CA,95821,5903,SACRAMENTO,Grocery Store,38.611301,-121.39964,,,-13514146.107286727,4666145.730825212
1558862,Sadeora Enterprise,3100 Fulton Ave,Ste 102,Sacramento,CA,95821,4750,SACRAMENTO,Convenience Store,38.621864,-121.4011,,,-13514308.633743284,4667650.668458298
1558893,Cathay Express,2550 Cottage Way,,Sacramento,CA,95825,1916,SACRAMENTO,Restaurant Meals Program,38.603004,-121.40255,,,-13514470.047004936,4664963.791377272
1559083,Subway #976,2545 Marconi Ave,Ste C,Sacramento,CA,95821,4830,SACRAMENTO,Restaurant Meals Program,38.61832,-121.40277,,,-13514494.53729291,4667145.721007138
1559590,Uptown Minimart,3504 Stockton Blvd,,Sacramento,CA,95820,1442,SACRAMENTO,Grocery Store,38.542706,-121.45195,,,-13519969.229850123,4656378.211517164
1560479,El Pollo Loco #3300,4600 Mack Rd,,Sacramento,CA,95823,4596,SACRAMENTO,Restaurant Meals Program,38.473923,-121.44704,,,-13519422.651150327,4646593.271854067
1560610,Aabdara Halal Market,8887 Folsom Blvd,Ste 8,Sacramento,CA,95826,3261,SACRAMENTO,Convenience Store,38.554523,-121.37329,,,-13511212.838704322,4658060.217146722
1560909,Taj Supermarket 1,7933 E Stockton Blvd,,Sacramento,CA,95823,9606,SACRAMENTO,Supermarket,38.470116,-121.41431,,,-13515779.164216664,4646051.968024387
1561280,Erics Donuts,5669 Mack Rd,,Sacramento,CA,95823,4670,SACRAMENTO,Convenience Store,38.474941,-121.43665,,,-13518266.041640986,4646738.022507352
1562002,Kabul Bazaar,1433 Fulton Ave,Suite A & B,Sacramento,CA,95825,    ,SACRAMENTO,Grocery Store,38.591461,-121.40211,,,-13514421.066428985,4663319.674058332
1562580,N & B Food Mart,3907 Stockton Blvd,,Sacramento,CA,95820,2912,SACRAMENTO,Convenience Store,38.539253,-121.44929,,,-13519673.120004615,4655886.771317663
1562911,Skip's Fish & Chicken,7235 Franklin Blvd,Ste 2,Sacramento,CA,95823,2472,SACRAMENTO,Restaurant Meals Program,38.494678,-121.45802,,,-13520644.939159239,4649544.854537349
1564027,Pal's Wine & Liquor,7812 Gerber Rd,,Sacramento,CA,95828,4302,SACRAMENTO,Convenience Store,38.481155,-121.41251,,,-13515578.789133236,4647621.643016077
1564048,Lucky Express,3828 Willow St,,Sacramento,CA,95838,3721,SACRAMENTO,Restaurant Meals Program,38.637573,-121.42889,,,-13517402.202392427,4669889.17988171
1564414,Antelope & Roseville Road Chevron,5869 Antelope Rd,,Sacramento,CA,95842,3902,SACRAMENTO,Convenience Store,38.705856,-121.32784,,,-13506153.367847769,4679625.1223936165
1564777,Dollar Tree 9640,1696 Arden Way,,Sacramento,CA,95815,4005,SACRAMENTO,Other,38.598125,-121.42738,,,-13517234.10996133,4664268.822931901
1565579,Pizza Guys #105,7600 Greenhaven Dr,Suite 2,Sacramento,CA,95831,5604,SACRAMENTO,Restaurant Meals Program,38.481052,-121.51784,,,-13527304.071098492,4647606.9959658235
1565583,Pizza Guys #107,3669 J St,,Sacramento,CA,95816,5425,SACRAMENTO,Restaurant Meals Program,38.571033,-121.45695,,,-13520525.827304088,4660410.677071717
1565600,Pizza Guys #161,2820 Del Paso Rd,Ste 100,Sacramento,CA,95834,9505,SACRAMENTO,Restaurant Meals Program,38.654579,-121.52442,,,-13528036.553347912,4672313.065171296
1565676,Eatwell Nutrition 4,5800 Antelope Rd,Ste A6,Sacramento,CA,95842,3900,SACRAMENTO,Grocery Store,38.705193,-121.32667,,,-13506023.124043541,4679530.545703976
1567059,Bula Sia Trading,3421 El Camino Ave,,Sacramento,CA,95821,6309,SACRAMENTO,Grocery Store,38.610756,-121.38458,,,-13512469.635755379,4666068.089292511
1567225,7-Eleven Store 42011H,3311 W El Camino Ave,,Sacramento,CA,95833,    ,SACRAMENTO,Convenience Store,38.614468,-121.53045,,,-13528707.809877394,4666596.918156377
1570218,Arco Ampm 7173,8105 Delta Shores Cir S,,Sacramento,CA,95832,9100,SACRAMENTO,Convenience Store,38.46563,-121.49049,,,-13524259.483025296,4645414.156270123
1570416,International Mediterranean Market,9261 Folsom Blvd,Ste 100,Sacramento,CA,95826,2559,SACRAMENTO,Grocery Store,38.563744,-121.35667,,,-13509362.708767338,4659372.905933782
1571478,Grocery Outlet North Sacramento 321,2308 Del Paso Blvd,,Sacramento,CA,95815,3103,SACRAMENTO,Supermarket,38.610462,-121.4494,,,-13519685.365148598,4666026.205848208
1573595,7 Eleven 42175A,1911 Cosumnes River Blvd,,Sacramento,CA,95832,1278,SACRAMENTO,Convenience Store,38.466858,-121.48981,,,-13524183.785771556,4645588.747251358
1574851,Darya Market,4128 El Camino Ave,Ste 11,Sacramento,CA,95821,6676,SACRAMENTO,Convenience Store,38.609917,-121.36758,,,-13510577.204411894,4665948.565223446
1574859,7 Eleven 41288A,4140 Northgate Blvd,,Sacramento,CA,95834,1240,SACRAMENTO,Convenience Store,38.644695,-121.47514,,,-13522550.728841618,4670904.216953705
1575128,Fastrip #895 895,8061 Florin Rd,,Sacramento,CA,95828,3140,SACRAMENTO,Convenience Store,38.49641,-121.4095,,,-13515243.717465946,4649791.201870013
1575381,7 Eleven 38788A,7171 Stockton Blvd,,Sacramento,CA,95823,2532,SACRAMENTO,Convenience Store,38.496441,-121.42876,,,-13517387.730858628,4649795.611142967
1575404,Burger & Chaat Junction (Halal),7900 Florin Rd,Ste 5,Sacramento,CA,95828,3145,SACRAMENTO,Restaurant Meals Program,38.495224,-121.40996,,,-13515294.924431711,4649622.513045711
1575408,Subway 41291,2550 W El Camino Ave,,Sacramento,CA,95833,3900,SACRAMENTO,Restaurant Meals Program,38.612995,-121.51865,,,-13527394.239886034,4666387.0644192705
1577010,June Produce 1,4101 Power Inn Rd,Ste A,Sacramento,CA,95826,4355,SACRAMENTO,Specialty Store,38.537708,-121.4086,,,-13515143.529924234,4655666.890423075
1577116,Indian Supermarket,4421 Gateway Park Blvd,Ste 130,Sacramento,CA,95834,2457,SACRAMENTO,Grocery Store,38.65192,-121.50331,,,-13525686.598897265,4671934.036811957
1577383,A To Z Halal Market,800 El Camino Ave,,Sacramento,CA,95815,2513,SACRAMENTO,Convenience Store,38.610863,-121.44824,,,-13519556.234539278,4666083.332629467
1578420,All Mart,1330 Fulton Ave,,Sacramento,CA,95825,3604,SACRAMENTO,Supermarket,38.590111,-121.40037,,,-13514227.370515004,4663127.405231485
1578598,King Wine & Liquor # 6,3407 El Camino Ave,,Sacramento,CA,95821,6309,SACRAMENTO,Convenience Store,38.610771,-121.38487,,,-13512501.918407708,4666070.226207538
1578900,Subway #24356,8775 Center Pkwy,Ste E100,Sacramento,CA,95823,7913,SACRAMENTO,Restaurant Meals Program,38.438412,-121.41834,,,-13516227.781764561,4641545.198149933
1578905,Subway #38957,8231 Timberlake Way,Ste 110,Sacramento,CA,95823,5423,SACRAMENTO,Restaurant Meals Program,38.459301,-121.41563,,,-13515926.10594451,4644514.3774159895
1582265,Jack in the Box #548,2293 Arden Way,,Sacramento,CA,95825,3301,SACRAMENTO,Restaurant Meals Program,38.596382,-121.41109,,,-13515420.71545631,4664020.560148002
1583453,Wendy's 651,4320 Watt Ave,,Sacramento,CA,95821,7012,SACRAMENTO,Restaurant Meals Program,38.643223,-121.38273,,,-13512263.69469741,4670694.417253066
1583538,Arco Am/pm,4421 Florin Rd,,Sacramento,CA,95823,2511,SACRAMENTO,Convenience Store,38.496498,-121.45441,,,-13520243.075797474,4649803.718520772
1583657,Subway 52318,1735 Arden Way,Ste 205,Sacramento,CA,95815,5013,SACRAMENTO,Restaurant Meals Program,38.599552,-121.424,,,-13516857.850082451,4664472.081001711
1584102,USA Mini Mart,7385 Greenhaven Dr,Ste 9,Sacramento,CA,95831,3893,SACRAMENTO,Convenience Store,38.491829,-121.5203,,,-13527577.917045843,4649139.645970486
1584749,Sayed Sweet & Bakery Llc,3704 Auburn Blvd,,Sacramento,CA,95821,2101,SACRAMENTO,Specialty Store,38.638786,-121.37788,,,-13511723.795167064,4670062.051155562
1585330,Cali Kabob & Gyro Market & Restaurant,9791 Lincoln Village Dr,Ste F,Sacramento,CA,95827,3326,SACRAMENTO,Convenience Store,38.562218,-121.33147,,,-13506557.457599347,4659155.655058623
1585513,Sineen Mart 0,9345 La Riviera Dr,,Sacramento,CA,95826,2411,SACRAMENTO,Convenience Store,38.562065,-121.35854,,,-13509570.876215123,4659133.873279045
1585975,Pizza Hut #011753,6619 Florin Rd,,Sacramento,CA,95828,2808,SACRAMENTO,Restaurant Meals Program,38.496426,-121.42575,,,-13517052.659191336,4649793.4776235605
1585982,Pizza Hut #011664,604 W El Camino Ave,,Sacramento,CA,95833,2108,SACRAMENTO,Restaurant Meals Program,38.611073,-121.47629,,,-13522678.746256031,4666113.249525094
1585983,Pizza Hut #011755,1100 Fulton Ave,,Sacramento,CA,95825,    ,SACRAMENTO,Restaurant Meals Program,38.585594,-121.40085,,,-13514280.803870587,4662484.114261602
1586486,El Pollo Loco #3877,8244 Delta Shores Cir S,,Sacramento,CA,95832,9101,SACRAMENTO,Restaurant Meals Program,38.461479,-121.49129,,,-13524348.538617931,4644824.0095780315
1586915,Sangheras House Of Liquors,5516 Florin Rd,,Sacramento,CA,95823,2203,SACRAMENTO,Convenience Store,38.495956,-121.44037,,,-13518680.150146738,4649726.627573795
1586987,Costco Wholesale 1674,3881 E Commerce Way,,Sacramento,CA,95834,4017,SACRAMENTO,Super Store,38.639721,-121.52169,,,-13527732.651138047,4670195.3051234875
1587212,Guru Farms Market,523 Broadway,,Sacramento,CA,95818,2001,SACRAMENTO,Convenience Store,38.56567,-121.50623,,,-13526011.651810382,4659647.109888538
1587822,Lucky Market,2426 Del Paso Blvd,,Sacramento,CA,95815,2509,SACRAMENTO,Convenience Store,38.611877,-121.44723,,,-13519443.801853579,4666227.789306357
1587939,McDonald's #25599,3006 K St,,Sacramento,CA,95816,5224,SACRAMENTO,Restaurant Meals Program,38.571617,-121.46677,,,-13521618.984703679,4660493.828608031
1587941,McDonald's #6757,200 Richards Blvd,,Sacramento,CA,95811,0236,SACRAMENTO,Restaurant Meals Program,38.596752,-121.50214,,,-13525556.355093034,4664073.260292315
1587944,McDonald's #6357,6370 Mack Rd,,Sacramento,CA,95823,4646,SACRAMENTO,Restaurant Meals Program,38.473858,-121.42847,,,-13517355.448206296,4646584.029494735
1587946,McDonald's #25597,4731 Mack Rd,,Sacramento,CA,95823,4511,SACRAMENTO,Restaurant Meals Program,38.474762,-121.44704,,,-13519422.651150327,4646712.570132401
1587948,McDonald's #2990,8901 Folsom Blvd,,Sacramento,CA,95826,3203,SACRAMENTO,Restaurant Meals Program,38.555023,-121.37223,,,-13511094.840044081,4658131.39213632
1588072,Express Mart,5071 24th St,,Sacramento,CA,95822,2201,SACRAMENTO,Convenience Store,38.528843,-121.48279,,,-13523402.322946185,4654405.335015531
1588320,H&S Energy Products LLC 3078,9700 Jackson Rd,,Sacramento,CA,95827,9713,SACRAMENTO,Convenience Store,38.528545,-121.33453,,,-13506898.095241176,4654362.930100361
1589262,Nile Variety Mart #2,1395 Florin Rd,,Sacramento,CA,95822,4201,SACRAMENTO,Convenience Store,38.4967,-121.5035,,,-13525707.749600515,4649832.449981475
1590046,Arden Fair Farmers Market,1689 Arden Way,,Sacramento,CA,95815,4030,SACRAMENTO,Farmers and Markets,38.601551,-121.42748,,,-13517245.241910411,4664756.820019927
1590332,Food Source Privoz 2,9777 Lincoln Village Dr,,Sacramento,CA,95827,3334,SACRAMENTO,Convenience Store,38.562222,-121.33213,,,-13506630.928463273,4659156.2245175345
1591154,Gyro Genie,5653 Stockton Blvd,,Sacramento,CA,95824,1632,SACRAMENTO,Restaurant Meals Program,38.523544,-121.44134,,,-13518788.130052807,4653651.322137417
1591610,Ray's Mart,5363 Auburn Blvd,Ste B,Sacramento,CA,95841,2864,SACRAMENTO,Grocery Store,38.667736,-121.33887,,,-13507381.221831217,4674188.742779534
1594250,Afghan Pita Market and Restaurant,2989 Arden Way,,Sacramento,CA,95825,1376,SACRAMENTO,Convenience Store,38.596535,-121.39579,,,-13513717.527247172,4664042.3523369
1594291,Firehouse Subs,3700 Crocker Dr,Ste 130,Sacramento,CA,95818,2950,SACRAMENTO,Restaurant Meals Program,38.540535,-121.48223,,,-13523339.984031344,4656069.226234375
1594472,TFC #1,4147 23rd Ave,,Sacramento,CA,95820,5034,SACRAMENTO,Restaurant Meals Program,38.532551,-121.45802,,,-13520644.939159239,4654932.992071298
1594532,Rivera Mart,907 Rivera Dr,,Sacramento,CA,95838,4384,SACRAMENTO,Convenience Store,38.627304,-121.44585,,,-13519290.180956284,4668425.805647087
1596472,Long Sandwiches,6451 Stockton Blvd,Ste 1,Sacramento,CA,95823,1631,SACRAMENTO,Restaurant Meals Program,38.509266,-121.43479,,,-13518058.98738811,4651619.932835801
1598298,Meadowview Certified Farmers' Market,3501 Meadowview Rd,,Sacramento,CA,95822,    ,SACRAMENTO,Farmers and Markets,38.483192,-121.46704,,,-13521649.040966192,4647911.317620819
1598485,Quickshop Mart 1,3700 Auburn Blvd,,Sacramento,CA,95821,2101,SACRAMENTO,Convenience Store,38.638786,-121.37788,,,-13511723.795167064,4670062.051155562
1598634,Sweet Land ,3465 Watt Ave,Ste 117,Sacramento,CA,95821,3629,SACRAMENTO,Convenience Store,38.628365,-121.38337,,,-13512334.93917152,4668576.992749777
1598979,De Nhat Kho Bo,6825 Stockton Blvd,Ste 220,Sacramento,CA,95823,2471,SACRAMENTO,Convenience Store,38.502682,-121.43012,,,-13517539.125366105,4650683.335999134
1599065,Desi Market And Grill,2087 Arena Blvd,Ste 120,Sacramento,CA,95834,2322,SACRAMENTO,Other,38.647171,-121.51125,,,-13526570.475654164,4671257.1234544
1599535,DOLLARTREE 9857,7463 Rush River Dr,,Sacramento,CA,95831,5246,SACRAMENTO,Other,38.486816,-121.53605,,,-13529331.199025836,4648426.694153148
1599809,Sutterville Food Mart,1400 Sutterville Rd,,Sacramento,CA,95822,1224,SACRAMENTO,Convenience Store,38.537048,-121.50339,,,-13525695.504456528,4655572.962160166
1599932,Subway 24451,7600 Greenhaven Dr,Ste 304 Bld. B,Sacramento,CA,95831,5651,SACRAMENTO,Restaurant Meals Program,38.481052,-121.51784,,,-13527304.071098492,4647606.9959658235
1601885,Barg Afghan Market & Restaurant,6321 Mack Rd,,Sacramento,CA,95823,4655,SACRAMENTO,Grocery Store,38.475552,-121.42881,,,-13517393.296833167,4646824.902319083
1603844,Subway Sandwich #68985,8270 Delta Shores Cir S,,Sacramento,CA,95832,9101,SACRAMENTO,Restaurant Meals Program,38.459522,-121.49305,,,-13524544.460921725,4644545.795129294
1605682,McDonald's 13352,8940 Pocket Rd,,Sacramento,CA,95831,4456,SACRAMENTO,Restaurant Meals Program,38.480648,-121.507,,,-13526097.367818294,4647549.545601834
1605744,McDonald's 25079,4124 Florin Rd,,Sacramento,CA,95823,2507,SACRAMENTO,Restaurant Meals Program,38.49572,-121.45737,,,-13520572.581490222,4649693.060479243
